gid,estado,cidade,via,hnum,nsvia,latitude,longitude,postcode
1,Aguascalientes,Aguascalientes,AVENIDA INDEPENDENCIA,2003,DESARROLLO ESPECIAL GALERÍAS,21.929700656990363,-102.29813811598541,20110
2,Aguascalientes,Aguascalientes,AVENIDA INDEPENDENCIA,2003B,DESARROLLO ESPECIAL GALERÍAS,21.929023300413817,-102.2981433774627,20110
3,Aguascalientes,Aguascalientes,AVENIDA INDEPENDENCIA,2001A,DESARROLLO ESPECIAL GALERÍAS,21.928820042931676,-102.29813181209576,20110
4,Aguascalientes,Aguascalientes,AVENIDA INDEPENDENCIA,2001,DESARROLLO ESPECIAL GALERÍAS,21.9285417882739,-102.29811597943922,20110
5,Aguascalientes,Aguascalientes,AVENIDA INDEPENDENCIA,2000,DESARROLLO ESPECIAL GALERÍAS,21.927511649309587,-102.29805736521598,20110
6,Aguascalientes,Aguascalientes,AVENIDA INDEPENDENCIA,SN,DESARROLLO ESPECIAL GALERÍAS,21.926076526207385,-102.29797570913377,20110
7,Aguascalientes,Aguascalientes,BOULEVARD LUIS DONALDO COLOSIO,SN,DESARROLLO ESPECIAL GALERÍAS,21.925471281812378,-102.29501100559267,20110
8,Aguascalientes,Aguascalientes,BOULEVARD LUIS DONALDO COLOSIO,792,DESARROLLO ESPECIAL GALERÍAS,21.92562874573101,-102.29240067079336,20110
9,Aguascalientes,Aguascalientes,BOULEVARD LUIS DONALDO COLOSIO,790,DESARROLLO ESPECIAL GALERÍAS,21.92561364583067,-102.29265101927481,20110
10,Aguascalientes,Aguascalientes,OTRO NINGUNO,117,DESARROLLO ESPECIAL GALERÍAS,21.929135104436654,-102.29570919196858,20110
11,Aguascalientes,Aguascalientes,OTRO NINGUNO,SN,DESARROLLO ESPECIAL GALERÍAS,21.928565337859045,-102.29453408221579,20110
12,Aguascalientes,Aguascalientes,OTRO NINGUNO,SN,DESARROLLO ESPECIAL GALERÍAS,21.92759710609389,-102.2918574640665,20110
13,Aguascalientes,Aguascalientes,AVENIDA INDEPENDENCIA,2351,DESARROLLO ESPECIAL GALERÍAS,21.924392488375307,-102.29790719790674,20124
14,Aguascalientes,Aguascalientes,AVENIDA INDEPENDENCIA,SN,DESARROLLO ESPECIAL GALERÍAS,21.923291499109794,-102.29779045489443,20124
15,Aguascalientes,Aguascalientes,CALLE ARTÍCULO 1O.,100,DESARROLLO ESPECIAL BULEVAR A ZACATECAS,21.91725200389248,-102.28699551963741,20124
16,Aguascalientes,Aguascalientes,AVENIDA AGUASCALIENTES NORTE,SN,DESARROLLO ESPECIAL BULEVAR A ZACATECAS,21.915555517102785,-102.28948975676552,20124
17,Aguascalientes,Aguascalientes,CALLE JORGE REYNOSO,SN,DESARROLLO ESPECIAL GALERÍAS,21.918454035085066,-102.29262944188731,20124
18,Aguascalientes,Aguascalientes,CALLE JORGE REYNOSO,SN,DESARROLLO ESPECIAL GALERÍAS,21.91844936876752,-102.29283215972231,20124
19,Aguascalientes,Aguascalientes,CALLE JORGE REYNOSO,SN,DESARROLLO ESPECIAL GALERÍAS,21.918444958189387,-102.29302375683548,20124
20,Aguascalientes,Aguascalientes,CALLE JORGE REYNOSO,SN,DESARROLLO ESPECIAL GALERÍAS,21.918440303070366,-102.29322596562778,20124
21,Aguascalientes,Aguascalientes,CALLE JORGE REYNOSO,SN,DESARROLLO ESPECIAL GALERÍAS,21.91843577130832,-102.29342280493363,20124
22,Aguascalientes,Aguascalientes,CALLE JORGE REYNOSO,SN,DESARROLLO ESPECIAL GALERÍAS,21.918431109804366,-102.29362526820573,20124
23,Aguascalientes,Aguascalientes,CALLE JORGE REYNOSO,809F,DESARROLLO ESPECIAL GALERÍAS,21.91842631267604,-102.29383360995044,20124
24,Aguascalientes,Aguascalientes,CALLE JORGE REYNOSO,SN,DESARROLLO ESPECIAL GALERÍAS,21.918422557160643,-102.29399670534214,20124
25,Aguascalientes,Aguascalientes,CALLE JORGE REYNOSO,SN,DESARROLLO ESPECIAL GALERÍAS,21.91841854245281,-102.29417104868173,20124
26,Aguascalientes,Aguascalientes,CALLE JORGE REYNOSO,SN,DESARROLLO ESPECIAL GALERÍAS,21.918413347239408,-102.29439664408288,20124
27,Aguascalientes,Aguascalientes,CALLE JORGE REYNOSO,SN,DESARROLLO ESPECIAL GALERÍAS,21.918409340870188,-102.29457060563728,20124
28,Aguascalientes,Aguascalientes,CALLE JORGE REYNOSO,SN,DESARROLLO ESPECIAL GALERÍAS,21.918404663199777,-102.29477370509805,20124
29,Aguascalientes,Aguascalientes,BOULEVARD A ZACATECAS,SN,DESARROLLO ESPECIAL GALERÍAS,21.918278527853715,-102.29204832137137,20124
30,Aguascalientes,Aguascalientes,BOULEVARD A ZACATECAS,SN,DESARROLLO ESPECIAL GALERÍAS,21.917018597141467,-102.2921340234633,20124
31,Aguascalientes,Aguascalientes,BOULEVARD A ZACATECAS,SN,DESARROLLO ESPECIAL GALERÍAS,21.916032391197312,-102.292195327478,20124
32,Aguascalientes,Aguascalientes,AVENIDA AGUASCALIENTES NORTE,SN,DESARROLLO ESPECIAL GALERÍAS,21.915631641155123,-102.29248782920098,20124
33,Aguascalientes,Aguascalientes,AVENIDA AGUASCALIENTES NORTE,780,DESARROLLO ESPECIAL GALERÍAS,21.915646718794566,-102.29268577653116,20124
34,Aguascalientes,Aguascalientes,AVENIDA AGUASCALIENTES NORTE,780,DESARROLLO ESPECIAL GALERÍAS,21.91566048348567,-102.2928664897328,20124
35,Aguascalientes,Aguascalientes,AVENIDA AGUASCALIENTES NORTE,739,DESARROLLO ESPECIAL GALERÍAS,21.91567328972792,-102.2930346222352,20124
36,Aguascalientes,Aguascalientes,AVENIDA INDEPENDENCIA,SN,DESARROLLO ESPECIAL GALERÍAS,21.91634763693354,-102.29737971660481,20124
37,Aguascalientes,Aguascalientes,AVENIDA INDEPENDENCIA,1839,DESARROLLO ESPECIAL GALERÍAS,21.91761203638971,-102.29745590837827,20124
38,Aguascalientes,Aguascalientes,AVENIDA AGUASCALIENTES NORTE,740,DESARROLLO ESPECIAL GALERÍAS,21.915691346397754,-102.29327169149069,20124
39,Aguascalientes,Aguascalientes,AVENIDA AGUASCALIENTES NORTE,780A,DESARROLLO ESPECIAL GALERÍAS,21.91570735243035,-102.29351799811717,20124
40,Aguascalientes,Aguascalientes,AVENIDA AGUASCALIENTES NORTE,SN,DESARROLLO ESPECIAL GALERÍAS,21.915720690361958,-102.29384422499217,20124
41,Aguascalientes,Aguascalientes,AVENIDA AGUASCALIENTES NORTE,SN,DESARROLLO ESPECIAL GALERÍAS,21.915736584596406,-102.29423299760673,20124
42,Aguascalientes,Aguascalientes,AVENIDA AGUASCALIENTES NORTE,SN,DESARROLLO ESPECIAL GALERÍAS,21.91574598671604,-102.2944629846057,20124
43,Aguascalientes,Aguascalientes,AVENIDA AGUASCALIENTES NORTE,SN,DESARROLLO ESPECIAL GALERÍAS,21.915757987392254,-102.29475654765702,20124
44,Aguascalientes,Aguascalientes,PRIVADA NINGUNO,SN,DESARROLLO ESPECIAL GALERÍAS,21.917805585853767,-102.29679257416662,20124
45,Aguascalientes,Aguascalientes,PRIVADA NINGUNO,SN,DESARROLLO ESPECIAL GALERÍAS,21.917818821420788,-102.29651136122818,20124
46,Aguascalientes,Aguascalientes,PRIVADA NINGUNO,SN,DESARROLLO ESPECIAL GALERÍAS,21.917832849026844,-102.29621330803307,20124
47,Aguascalientes,Aguascalientes,AVENIDA INDEPENDENCIA,SN,DESARROLLO ESPECIAL GALERÍAS,21.917959228007252,-102.29747682997858,20124
48,Aguascalientes,Aguascalientes,AVENIDA INDEPENDENCIA,1841,DESARROLLO ESPECIAL GALERÍAS,21.91809037924666,-102.29748473305271,20124
49,Aguascalientes,Aguascalientes,AVENIDA INDEPENDENCIA,SN,DESARROLLO ESPECIAL GALERÍAS,21.918216295779914,-102.29749232070168,20124
50,Aguascalientes,Aguascalientes,CALLE DAMIÁN CARMONA,518,TALAMANTES PONCE,21.930629633246525,-102.2964727486759,20110
51,Aguascalientes,Aguascalientes,CALLE DAMIÁN CARMONA,402,TALAMANTES PONCE,21.930741273244248,-102.29647898507015,20110
52,Aguascalientes,Aguascalientes,CALLE DAMIÁN CARMONA,SN,TALAMANTES PONCE,21.930851756467792,-102.29648515685511,20110
53,Aguascalientes,Aguascalientes,CALLE DAMIÁN CARMONA,514,TALAMANTES PONCE,21.930912546251395,-102.29648855268236,20110
54,Aguascalientes,Aguascalientes,CALLE DAMIÁN CARMONA,SN,TALAMANTES PONCE,21.93098235017573,-102.29649245205954,20110
55,Aguascalientes,Aguascalientes,CALLE DAMIÁN CARMONA,405,TALAMANTES PONCE,21.931056082782327,-102.29649657090452,20110
56,Aguascalientes,Aguascalientes,CALLE DAMIÁN CARMONA,408,TALAMANTES PONCE,21.931148769093564,-102.29650174854615,20110
57,Aguascalientes,Aguascalientes,CALLE LUIS GIL,105,TALAMANTES PONCE,21.931240799605956,-102.2964219766181,20110
58,Aguascalientes,Aguascalientes,CALLE LUIS GIL,103,TALAMANTES PONCE,21.93124756644876,-102.2963418216668,20110
59,Aguascalientes,Aguascalientes,CALLE LUIS GIL,101,TALAMANTES PONCE,21.931253564310335,-102.29627196028484,20110
60,Aguascalientes,Aguascalientes,CALLE NINGUNO,SN,TALAMANTES PONCE,21.930912906833946,-102.29616958006186,20110
61,Aguascalientes,Aguascalientes,CALLE SALVADOR RODRÍGUEZ ESPARZA,206,TALAMANTES PONCE,21.93059589385987,-102.2962213490405,20110
62,Aguascalientes,Aguascalientes,CALLE LUIS GIL,103,TALAMANTES PONCE,21.931102969568997,-102.29788521505739,20110
63,Aguascalientes,Aguascalientes,CALLE LUIS GIL,105,TALAMANTES PONCE,21.931110039068663,-102.29780004320378,20110
64,Aguascalientes,Aguascalientes,CALLE LUIS GIL,SN,TALAMANTES PONCE,21.931117835485935,-102.29770611292979,20110
65,Aguascalientes,Aguascalientes,CALLE LUIS GIL,109,TALAMANTES PONCE,21.93112529994141,-102.29761618143262,20110
66,Aguascalientes,Aguascalientes,CALLE LUIS GIL,111B,TALAMANTES PONCE,21.93113261161025,-102.29752809007947,20110
67,Aguascalientes,Aguascalientes,CALLE LUIS GIL,SN,TALAMANTES PONCE,21.93114068175246,-102.2974308598838,20110
68,Aguascalientes,Aguascalientes,CALLE JOSÉ REYES,111,TALAMANTES PONCE,21.931033046768142,-102.29730399665665,20110
69,Aguascalientes,Aguascalientes,CALLE JOSÉ REYES,111A,TALAMANTES PONCE,21.9309671871062,-102.2973051325616,20110
70,Aguascalientes,Aguascalientes,CALLE JOSÉ REYES,SN,TALAMANTES PONCE,21.930893045139236,-102.2973064113131,20110
71,Aguascalientes,Aguascalientes,CALLE JOSÉ REYES,114A,TALAMANTES PONCE,21.93083267378542,-102.29730745255716,20110
72,Aguascalientes,Aguascalientes,CALLE JOSÉ REYES,116,TALAMANTES PONCE,21.930755762745143,-102.29730877906518,20110
73,Aguascalientes,Aguascalientes,CALLE JOSÉ REYES,SN,TALAMANTES PONCE,21.930666652569382,-102.29731031597352,20110
74,Aguascalientes,Aguascalientes,CALLE JOSÉ REYES,108,TALAMANTES PONCE,21.930501853891847,-102.29731315829753,20110
75,Aguascalientes,Aguascalientes,CALLE SALVADOR RODRÍGUEZ ESPARZA,106,TALAMANTES PONCE,21.93045463565951,-102.29750046343291,20110
76,Aguascalientes,Aguascalientes,CALLE SALVADOR RODRÍGUEZ ESPARZA,SN,TALAMANTES PONCE,21.930438195639503,-102.29762214189158,20110
77,Aguascalientes,Aguascalientes,CALLE SALVADOR RODRÍGUEZ ESPARZA,2017,TALAMANTES PONCE,21.930414875391467,-102.29781462634996,20110
78,Aguascalientes,Aguascalientes,AVENIDA INDEPENDENCIA,SN,TALAMANTES PONCE,21.93085307800808,-102.29805742459146,20110
79,Aguascalientes,Aguascalientes,AVENIDA INDEPENDENCIA,SN,TALAMANTES PONCE,21.93065268359045,-102.298080837887,20110
80,Aguascalientes,Aguascalientes,CALLE JOSÉ REYES,SN,TALAMANTES PONCE,21.93086028612768,-102.29721302391773,20110
81,Aguascalientes,Aguascalientes,CALLE JOSÉ REYES,103,TALAMANTES PONCE,21.930681878749603,-102.2972110807658,20110
82,Aguascalientes,Aguascalientes,CALLE JOSÉ REYES,SN,TALAMANTES PONCE,21.93053088536394,-102.29720943620163,20110
83,Aguascalientes,Aguascalientes,CALLE JOSÉ REYES,SN,TALAMANTES PONCE,21.931038693517326,-102.29721496707484,20110
84,Aguascalientes,Aguascalientes,CALLE LUIS GIL,115A,TALAMANTES PONCE,21.931169371208433,-102.29710297010067,20110
85,Aguascalientes,Aguascalientes,CALLE LUIS GIL,SN,TALAMANTES PONCE,21.931181743772,-102.29697940698414,20110
86,Aguascalientes,Aguascalientes,CALLE LUIS GIL,119,TALAMANTES PONCE,21.931189087546336,-102.29690606522465,20110
87,Aguascalientes,Aguascalientes,CALLE LUIS GIL,107A,TALAMANTES PONCE,21.93119254475322,-102.29687153821838,20110
88,Aguascalientes,Aguascalientes,CALLE LUIS GIL,403,TALAMANTES PONCE,21.931196929534757,-102.29682774744181,20110
89,Aguascalientes,Aguascalientes,CALLE LUIS GIL,101-103,TALAMANTES PONCE,21.93120501680063,-102.29674697965105,20110
90,Aguascalientes,Aguascalientes,CALLE DAMIÁN CARMONA,499,TALAMANTES PONCE,21.931042833809883,-102.29657576397751,20110
91,Aguascalientes,Aguascalientes,CALLE DAMIÁN CARMONA,505A,TALAMANTES PONCE,21.93101111879886,-102.29657453507191,20110
92,Aguascalientes,Aguascalientes,CALLE DAMIÁN CARMONA,501,TALAMANTES PONCE,21.930888931759537,-102.29656980052621,20110
93,Aguascalientes,Aguascalientes,CALLE DAMIÁN CARMONA,509,TALAMANTES PONCE,21.930814862473085,-102.29656693046799,20110
94,Aguascalientes,Aguascalientes,CALLE DAMIÁN CARMONA,511,TALAMANTES PONCE,21.930725621078846,-102.29656347252062,20110
95,Aguascalientes,Aguascalientes,CALLE SALVADOR RODRÍGUEZ ESPARZA,513,TALAMANTES PONCE,21.93055020180866,-102.29667636094527,20110
96,Aguascalientes,Aguascalientes,CALLE SALVADOR RODRÍGUEZ ESPARZA,120,TALAMANTES PONCE,21.9305374012477,-102.29679823917176,20110
97,Aguascalientes,Aguascalientes,CALLE SALVADOR RODRÍGUEZ ESPARZA,122,TALAMANTES PONCE,21.930529924740533,-102.29686942494655,20110
98,Aguascalientes,Aguascalientes,CALLE SALVADOR RODRÍGUEZ ESPARZA,130,TALAMANTES PONCE,21.930522142122413,-102.29694352494191,20110
99,Aguascalientes,Aguascalientes,CALLE SALVADOR RODRÍGUEZ ESPARZA,128,TALAMANTES PONCE,21.93051744608711,-102.29698823674384,20110
100,Aguascalientes,Aguascalientes,AVENIDA INDEPENDENCIA,2019,ARROYO DE LA HACIENDA,21.930232851918394,-102.29812359775472,20110
101,Aguascalientes,Aguascalientes,AVENIDA INDEPENDENCIA,SN,ARROYO DE LA HACIENDA,21.930064001982256,-102.29814206182662,20110
102,Aguascalientes,Aguascalientes,PRIVADA ARROYO DE LA HACIENDA,SN,ARROYO DE LA HACIENDA,21.929999324854034,-102.29677193245519,20110
103,Aguascalientes,Aguascalientes,PRIVADA ARROYO DE LA HACIENDA,SN,ARROYO DE LA HACIENDA,21.92998407336847,-102.29691790349092,20110
104,Aguascalientes,Aguascalientes,CALLE SALVADOR RODRÍGUEZ ESPARZA,SN,ARROYO DE LA HACIENDA,21.93040595207993,-102.29709211478517,20110
105,Aguascalientes,Aguascalientes,OTRO NINGUNO,SN,ARROYO DE LA HACIENDA,21.930294232177253,-102.29601715153524,20110
106,Aguascalientes,Aguascalientes,PRIVADA ARROYO DE LA HACIENDA,SN,ARROYO DE LA HACIENDA,21.929946299811885,-102.29756402896811,20110
107,Aguascalientes,Aguascalientes,PRIVADA ARROYO DE LA HACIENDA,SN,ARROYO DE LA HACIENDA,21.93003675985253,-102.29633510163308,20110
108,Aguascalientes,Aguascalientes,AVENIDA INDEPENDENCIA,SN,DESARROLLO ESPECIAL GALERÍAS,21.92228285180883,-102.29773702434983,20124
109,Aguascalientes,Aguascalientes,AVENIDA INDEPENDENCIA,SN,DESARROLLO ESPECIAL GALERÍAS,21.92210442909671,-102.29772661713041,20124
110,Aguascalientes,Aguascalientes,AVENIDA INDEPENDENCIA,SN,DESARROLLO ESPECIAL GALERÍAS,21.921926600854125,-102.29771590127037,20124
111,Aguascalientes,Aguascalientes,AVENIDA INDEPENDENCIA,SN,DESARROLLO ESPECIAL GALERÍAS,21.921772273221784,-102.2977066015704,20124
112,Aguascalientes,Aguascalientes,AVENIDA INDEPENDENCIA,SN,DESARROLLO ESPECIAL GALERÍAS,21.92156213909946,-102.29769393903513,20124
113,Aguascalientes,Aguascalientes,CALLE MONTÉS HIMALAYA,SN,DESARROLLO ESPECIAL GALERÍAS,21.92256040427623,-102.2962922073406,20124
114,Aguascalientes,Aguascalientes,CALLE NINGUNO,SN,DESARROLLO ESPECIAL GALERÍAS,21.922094696194712,-102.29583818755752,20124
115,Aguascalientes,Aguascalientes,CALLE NINGUNO,SN,DESARROLLO ESPECIAL GALERÍAS,21.92143634306469,-102.29631585920248,20124
116,Aguascalientes,Aguascalientes,CALLE MONTÉS HIMALAYA,SN,DESARROLLO ESPECIAL GALERÍAS,21.92262804038068,-102.29489120390613,20124
117,Aguascalientes,Aguascalientes,CALLE NINGUNO,SN,DESARROLLO ESPECIAL GALERÍAS,21.922086763888814,-102.2957179392012,20124
118,Aguascalientes,Aguascalientes,CALLE NINGUNO,SN,DESARROLLO ESPECIAL GALERÍAS,21.92148677651917,-102.29482245060574,20124
119,Aguascalientes,Aguascalientes,AVENIDA INDEPENDENCIA,SN,DESARROLLO ESPECIAL GALERÍAS,21.92113532047182,-102.2976682191787,20124
120,Aguascalientes,Aguascalientes,AVENIDA INDEPENDENCIA,SN,DESARROLLO ESPECIAL GALERÍAS,21.92082695683631,-102.29764963730095,20124
121,Aguascalientes,Aguascalientes,AVENIDA INDEPENDENCIA,1861,DESARROLLO ESPECIAL GALERÍAS,21.92065196661149,-102.29763909249243,20124
122,Aguascalientes,Aguascalientes,AVENIDA INDEPENDENCIA,SN,DESARROLLO ESPECIAL GALERÍAS,21.92027899126156,-102.29761661730606,20124
123,Aguascalientes,Aguascalientes,CALLE NINGUNO,SN,DESARROLLO ESPECIAL GALERÍAS,21.920696189386348,-102.29578520398789,20124
124,Aguascalientes,Aguascalientes,CALLE NINGUNO,SN,DESARROLLO ESPECIAL GALERÍAS,21.921363801217723,-102.29631794925095,20124
125,Aguascalientes,Aguascalientes,CALLE NINGUNO,SN,DESARROLLO ESPECIAL GALERÍAS,21.920156880495846,-102.2961475762201,20124
126,Aguascalientes,Aguascalientes,PRIVADA NINGUNO,SN,DESARROLLO ESPECIAL GALERÍAS,21.921414164016404,-102.29481643600637,20124
127,Aguascalientes,Aguascalientes,CALLE NINGUNO,SN,DESARROLLO ESPECIAL GALERÍAS,21.920712478316013,-102.29564967736934,20124
128,Aguascalientes,Aguascalientes,PRIVADA NINGUNO,SN,DESARROLLO ESPECIAL GALERÍAS,21.920198657140947,-102.2947904922847,20124
129,Aguascalientes,Aguascalientes,AVENIDA INDEPENDENCIA,847,DESARROLLO ESPECIAL GALERÍAS,21.919784868925294,-102.2975868418032,20124
130,Aguascalientes,Aguascalientes,AVENIDA INDEPENDENCIA,SN,DESARROLLO ESPECIAL GALERÍAS,21.919542137576492,-102.29757221488005,20124
131,Aguascalientes,Aguascalientes,AVENIDA INDEPENDENCIA,SN,DESARROLLO ESPECIAL GALERÍAS,21.919298968935742,-102.2975575616578,20124
132,Aguascalientes,Aguascalientes,AVENIDA INDEPENDENCIA,SN,DESARROLLO ESPECIAL GALERÍAS,21.91906969840464,-102.29754374597641,20124
133,Aguascalientes,Aguascalientes,AVENIDA INDEPENDENCIA,1845,DESARROLLO ESPECIAL GALERÍAS,21.918875134367937,-102.29753202172031,20124
134,Aguascalientes,Aguascalientes,CALLE NINGUNO,SN,DESARROLLO ESPECIAL GALERÍAS,21.919994677470346,-102.29643963050263,20124
135,Aguascalientes,Aguascalientes,CALLE NINGUNO,1847,DESARROLLO ESPECIAL GALERÍAS,21.920010587054286,-102.2960840525731,20124
136,Aguascalientes,Aguascalientes,CALLE MONTÉS HIMALAYA,SN,DESARROLLO ESPECIAL GALERÍAS,21.92272177284083,-102.29289257081493,20124
137,Aguascalientes,Aguascalientes,CALLE MONTÉS HIMALAYA,911,DESARROLLO ESPECIAL GALERÍAS,21.922730238295436,-102.29275428956743,20124
138,Aguascalientes,Aguascalientes,CALLE MONTÉS HIMALAYA,SN,DESARROLLO ESPECIAL GALERÍAS,21.92273342951339,-102.29260358209616,20124
139,Aguascalientes,Aguascalientes,CALLE MONTÉS HIMALAYA,SN,DESARROLLO ESPECIAL GALERÍAS,21.92273633021983,-102.29246658817124,20124
140,Aguascalientes,Aguascalientes,CALLE MONTÉS HIMALAYA,SN,DESARROLLO ESPECIAL GALERÍAS,21.922742901369705,-102.29232910544609,20124
141,Aguascalientes,Aguascalientes,CALLE MONTÉS HIMALAYA,SN,DESARROLLO ESPECIAL GALERÍAS,21.92272955935214,-102.29219910934373,20124
142,Aguascalientes,Aguascalientes,CALLE MONTÉS HIMALAYA,SN,DESARROLLO ESPECIAL GALERÍAS,21.92269467650161,-102.29207689212704,20124
143,Aguascalientes,Aguascalientes,PRIVADA NINGUNO,SN,DESARROLLO ESPECIAL GALERÍAS,21.921968258188457,-102.29269467246688,20124
144,Aguascalientes,Aguascalientes,PRIVADA NINGUNO,SN,DESARROLLO ESPECIAL GALERÍAS,21.921768222185456,-102.29331043260555,20124
145,Aguascalientes,Aguascalientes,BOULEVARD A ZACATECAS,SN,DESARROLLO ESPECIAL GALERÍAS,21.920657699745266,-102.29191163150182,20124
146,Aguascalientes,Aguascalientes,BOULEVARD A ZACATECAS,825,DESARROLLO ESPECIAL GALERÍAS,21.91990230827904,-102.29195261319173,20124
147,Aguascalientes,Aguascalientes,BOULEVARD A ZACATECAS,SN,DESARROLLO ESPECIAL GALERÍAS,21.91953106606782,-102.29197331681145,20124
148,Aguascalientes,Aguascalientes,BOULEVARD A ZACATECAS,SN,DESARROLLO ESPECIAL GALERÍAS,21.919095995179052,-102.29199757991773,20124
149,Aguascalientes,Aguascalientes,PRIVADA NINGUNO,SN,DESARROLLO ESPECIAL GALERÍAS,21.9215799332023,-102.29236777247844,20124
150,Aguascalientes,Aguascalientes,CALLE JORGE REYNOSO,SN,DESARROLLO ESPECIAL GALERÍAS,21.918606341466894,-102.29399371792653,20124
151,Aguascalientes,Aguascalientes,CALLE NINGUNO,SN,DESARROLLO ESPECIAL GALERÍAS,21.91951252767424,-102.29478438435159,20124
152,Aguascalientes,Aguascalientes,PRIVADA NINGUNO,SN,DESARROLLO ESPECIAL GALERÍAS,21.920078577051353,-102.2940458295092,20124
153,Aguascalientes,Aguascalientes,CALLE MONTÉS HIMALAYA,SN,DESARROLLO ESPECIAL GALERÍAS,21.922942338851144,-102.29727003094804,20124
154,Aguascalientes,Aguascalientes,CALLE MONTÉS HIMALAYA,101-102,DESARROLLO ESPECIAL GALERÍAS,21.922748843143648,-102.29394297133197,20124
155,Aguascalientes,Aguascalientes,CALLE MONTÉS HIMALAYA,103,DESARROLLO ESPECIAL GALERÍAS,21.922813499469424,-102.29388154969558,20124
156,Aguascalientes,Aguascalientes,CALLE MONTÉS HIMALAYA,104,DESARROLLO ESPECIAL GALERÍAS,21.922866043806746,-102.29381510052994,20124
157,Aguascalientes,Aguascalientes,CALLE MONTÉS HIMALAYA,105,DESARROLLO ESPECIAL GALERÍAS,21.922918735364984,-102.29374682922769,20124
158,Aguascalientes,Aguascalientes,CALLE MONTÉS HIMALAYA,106,DESARROLLO ESPECIAL GALERÍAS,21.922961875237004,-102.2936654047335,20124
159,Aguascalientes,Aguascalientes,CALLE MONTÉS HIMALAYA,107,DESARROLLO ESPECIAL GALERÍAS,21.922989603120225,-102.29360249789559,20124
160,Aguascalientes,Aguascalientes,CALLE MONTÉS HIMALAYA,108,DESARROLLO ESPECIAL GALERÍAS,21.923014510016557,-102.29353608041147,20124
161,Aguascalientes,Aguascalientes,CALLE MONTÉS HIMALAYA,109,DESARROLLO ESPECIAL GALERÍAS,21.923018422037394,-102.29347474932054,20124
162,Aguascalientes,Aguascalientes,CALLE MONTÉS HIMALAYA,SN,DESARROLLO ESPECIAL GALERÍAS,21.92301221610834,-102.29340953100366,20124
163,Aguascalientes,Aguascalientes,CALLE ABEDUL,706,LAS ARBOLEDAS,21.90088194240243,-102.30354684763387,20020
164,Aguascalientes,Aguascalientes,CALLE ABEDUL,704,LAS ARBOLEDAS,21.9009280815004,-102.30336215446196,20020
165,Aguascalientes,Aguascalientes,CALLE ABEDUL,702,LAS ARBOLEDAS,21.900941730281964,-102.3033075186795,20020
166,Aguascalientes,Aguascalientes,CALLE CASUARINA,424,LAS ARBOLEDAS,21.90076589852881,-102.30315849092149,20020
167,Aguascalientes,Aguascalientes,CALLE CASUARINA,422,LAS ARBOLEDAS,21.900692964401802,-102.30313655641949,20020
168,Aguascalientes,Aguascalientes,CALLE CASUARINA,420,LAS ARBOLEDAS,21.90063322465307,-102.30311859006581,20020
169,Aguascalientes,Aguascalientes,CALLE CASUARINA,418,LAS ARBOLEDAS,21.90056923673694,-102.30309934612053,20020
170,Aguascalientes,Aguascalientes,CALLE CASUARINA,414,LAS ARBOLEDAS,21.900395475187572,-102.30304708857065,20020
171,Aguascalientes,Aguascalientes,CALLE CASUARINA,412,LAS ARBOLEDAS,21.90030851696608,-102.3030209365558,20020
172,Aguascalientes,Aguascalientes,CALLE CASUARINA,410,LAS ARBOLEDAS,21.90016978060456,-102.30297921273579,20020
173,Aguascalientes,Aguascalientes,CALLE CASUARINA,408,LAS ARBOLEDAS,21.90004513837949,-102.30294172768627,20020
174,Aguascalientes,Aguascalientes,CALLE CASUARINA,406,LAS ARBOLEDAS,21.899976607297226,-102.30292111759807,20020
175,Aguascalientes,Aguascalientes,CALLE CASUARINA,404,LAS ARBOLEDAS,21.89990754149638,-102.3029003467199,20020
176,Aguascalientes,Aguascalientes,CALLE CASUARINA,402,LAS ARBOLEDAS,21.899827560285352,-102.30287629316378,20020
177,Aguascalientes,Aguascalientes,CALLE MARGIL DE JESÚS,1603,LAS ARBOLEDAS,21.899717896797885,-102.30304505347637,20020
178,Aguascalientes,Aguascalientes,CALLE MARGIL DE JESÚS,1605A,LAS ARBOLEDAS,21.899706992962717,-102.30308218912461,20020
179,Aguascalientes,Aguascalientes,CALLE MARGIL DE JESÚS,1605B,LAS ARBOLEDAS,21.89969917069583,-102.30310882972402,20020
180,Aguascalientes,Aguascalientes,CALLE MARGIL DE JESÚS,1605,LAS ARBOLEDAS,21.89968550165051,-102.30315538287992,20020
181,Aguascalientes,Aguascalientes,CALLE EUCALIPTO,401A,LAS ARBOLEDAS,21.899748247770685,-102.30322770990736,20020
182,Aguascalientes,Aguascalientes,CALLE EUCALIPTO,401,LAS ARBOLEDAS,21.899803868963215,-102.30324544864352,20020
183,Aguascalientes,Aguascalientes,CALLE EUCALIPTO,403,LAS ARBOLEDAS,21.89984317307097,-102.30325798353662,20020
184,Aguascalientes,Aguascalientes,CALLE EUCALIPTO,405,LAS ARBOLEDAS,21.89989639828599,-102.3032749581708,20020
185,Aguascalientes,Aguascalientes,CALLE EUCALIPTO,407,LAS ARBOLEDAS,21.89997134929485,-102.3032988616383,20020
186,Aguascalientes,Aguascalientes,CALLE EUCALIPTO,409,LAS ARBOLEDAS,21.900036435728307,-102.30331961910548,20020
187,Aguascalientes,Aguascalientes,CALLE EUCALIPTO,411,LAS ARBOLEDAS,21.900143376430556,-102.3033537248462,20020
188,Aguascalientes,Aguascalientes,CALLE EUCALIPTO,413,LAS ARBOLEDAS,21.90022333681565,-102.30337922600702,20020
189,Aguascalientes,Aguascalientes,CALLE EUCALIPTO,415,LAS ARBOLEDAS,21.90031786277366,-102.30340937249588,20020
190,Aguascalientes,Aguascalientes,CALLE EUCALIPTO,417,LAS ARBOLEDAS,21.900411590070558,-102.30343926431631,20020
191,Aguascalientes,Aguascalientes,CALLE EUCALIPTO,419,LAS ARBOLEDAS,21.900522187964825,-102.30347453661848,20020
192,Aguascalientes,Aguascalientes,CALLE EUCALIPTO,421,LAS ARBOLEDAS,21.900611858723565,-102.30350313480243,20020
193,Aguascalientes,Aguascalientes,CALLE EUCALIPTO,423,LAS ARBOLEDAS,21.900686011058543,-102.30352678381342,20020
194,Aguascalientes,Aguascalientes,CALLE EUCALIPTO,425,LAS ARBOLEDAS,21.90077242393899,-102.3035543430489,20020
195,Aguascalientes,Aguascalientes,AVENIDA CANAL INTERCEPTOR,SN,LAS ARBOLEDAS,21.902790288768262,-102.30390123250736,20020
196,Aguascalientes,Aguascalientes,CALLE CASUARINA,544,LAS ARBOLEDAS,21.902638453021076,-102.30374991996158,20020
197,Aguascalientes,Aguascalientes,CALLE CASUARINA,SN,LAS ARBOLEDAS,21.90255748236008,-102.30372439963864,20020
198,Aguascalientes,Aguascalientes,CALLE CASUARINA,540,LAS ARBOLEDAS,21.902476841424413,-102.30369898326974,20020
199,Aguascalientes,Aguascalientes,CALLE CASUARINA,538,LAS ARBOLEDAS,21.90238380067548,-102.30366965877278,20020
200,Aguascalientes,Aguascalientes,CALLE CASUARINA,536,LAS ARBOLEDAS,21.9022772098583,-102.3036360636289,20020
201,Aguascalientes,Aguascalientes,CALLE CASUARINA,534,LAS ARBOLEDAS,21.902183264250173,-102.3036064540294,20020
202,Aguascalientes,Aguascalientes,CALLE CASUARINA,532,LAS ARBOLEDAS,21.902100077398345,-102.30358023538975,20020
203,Aguascalientes,Aguascalientes,CALLE CASUARINA,SN,LAS ARBOLEDAS,21.902021407233573,-102.3035554403396,20020
204,Aguascalientes,Aguascalientes,CALLE CASUARINA,SN,LAS ARBOLEDAS,21.90193427881607,-102.30352797947484,20020
205,Aguascalientes,Aguascalientes,CALLE CASUARINA,524,LAS ARBOLEDAS,21.901843208834396,-102.30349927635902,20020
206,Aguascalientes,Aguascalientes,CALLE CASUARINA,522,LAS ARBOLEDAS,21.901783096220893,-102.30348033029915,20020
207,Aguascalientes,Aguascalientes,CALLE CASUARINA,SN,LAS ARBOLEDAS,21.901714609682116,-102.3034587449992,20020
208,Aguascalientes,Aguascalientes,CALLE CASUARINA,518,LAS ARBOLEDAS,21.90166213479119,-102.30344220619845,20020
209,Aguascalientes,Aguascalientes,CALLE CASUARINA,516A,LAS ARBOLEDAS,21.901601285974976,-102.30342302815805,20020
210,Aguascalientes,Aguascalientes,CALLE CASUARINA,514,LAS ARBOLEDAS,21.901555053153217,-102.3034084567291,20020
211,Aguascalientes,Aguascalientes,CALLE CASUARINA,512,LAS ARBOLEDAS,21.901501673405765,-102.30339163278067,20020
212,Aguascalientes,Aguascalientes,CALLE CASUARINA,510A,LAS ARBOLEDAS,21.90144673693065,-102.30337431820531,20020
213,Aguascalientes,Aguascalientes,CALLE CASUARINA,508,LAS ARBOLEDAS,21.901393686908786,-102.3033575982056,20020
214,Aguascalientes,Aguascalientes,CALLE CASUARINA,506,LAS ARBOLEDAS,21.901339816359066,-102.30334061961047,20020
215,Aguascalientes,Aguascalientes,CALLE CASUARINA,504,LAS ARBOLEDAS,21.901291612752708,-102.30332542710018,20020
216,Aguascalientes,Aguascalientes,CALLE CASUARINA,502,LAS ARBOLEDAS,21.901206125372052,-102.30329848375118,20020
217,Aguascalientes,Aguascalientes,CALLE ABEDUL,500,LAS ARBOLEDAS,21.90101757423567,-102.3032796228764,20020
218,Aguascalientes,Aguascalientes,CALLE ABEDUL,703,LAS ARBOLEDAS,21.90098256602133,-102.30341614540343,20020
219,Aguascalientes,Aguascalientes,CALLE ABEDUL,705,LAS ARBOLEDAS,21.90096029204588,-102.30350261629181,20020
220,Aguascalientes,Aguascalientes,CALLE EUCALIPTO,105,LAS ARBOLEDAS,21.901056448549276,-102.30363450703663,20020
221,Aguascalientes,Aguascalientes,CALLE EUCALIPTO,SN,LAS ARBOLEDAS,21.901130718870995,-102.30365901453338,20020
222,Aguascalientes,Aguascalientes,CALLE EUCALIPTO,505,LAS ARBOLEDAS,21.901200044542257,-102.30368189043435,20020
223,Aguascalientes,Aguascalientes,CALLE EUCALIPTO,507,LAS ARBOLEDAS,21.901258232764732,-102.30370109124824,20020
224,Aguascalientes,Aguascalientes,CALLE EUCALIPTO,507A,LAS ARBOLEDAS,21.901311313739154,-102.30371860679922,20020
225,Aguascalientes,Aguascalientes,CALLE EUCALIPTO,509,LAS ARBOLEDAS,21.901360645576734,-102.30373488523048,20020
226,Aguascalientes,Aguascalientes,CALLE EUCALIPTO,511,LAS ARBOLEDAS,21.90142334328659,-102.30375557412597,20020
227,Aguascalientes,Aguascalientes,CALLE EUCALIPTO,513A,LAS ARBOLEDAS,21.901503916358227,-102.30378216153541,20020
228,Aguascalientes,Aguascalientes,CALLE EUCALIPTO,515,LAS ARBOLEDAS,21.901553248192645,-102.3037984400135,20020
229,Aguascalientes,Aguascalientes,CALLE EUCALIPTO,517,LAS ARBOLEDAS,21.901604373294784,-102.30381531024555,20020
230,Aguascalientes,Aguascalientes,CALLE EUCALIPTO,519,LAS ARBOLEDAS,21.901651749260573,-102.30383094335149,20020
231,Aguascalientes,Aguascalientes,CALLE EUCALIPTO,521,LAS ARBOLEDAS,21.901697006760184,-102.30384587741722,20020
232,Aguascalientes,Aguascalientes,CALLE EUCALIPTO,523,LAS ARBOLEDAS,21.90176932119909,-102.30386973975081,20020
233,Aguascalientes,Aguascalientes,CALLE EUCALIPTO,525,LAS ARBOLEDAS,21.90184706807913,-102.30389539471184,20020
234,Aguascalientes,Aguascalientes,CALLE EUCALIPTO,527,LAS ARBOLEDAS,21.901899388688513,-102.30391265951435,20020
235,Aguascalientes,Aguascalientes,CALLE EUCALIPTO,529,LAS ARBOLEDAS,21.901985394189932,-102.30394103971831,20020
236,Aguascalientes,Aguascalientes,CALLE EUCALIPTO,SN,LAS ARBOLEDAS,21.902084928157393,-102.30397388410913,20020
237,Aguascalientes,Aguascalientes,CALLE EUCALIPTO,535,LAS ARBOLEDAS,21.902180115230617,-102.30400529415095,20020
238,Aguascalientes,Aguascalientes,CALLE EUCALIPTO,SN,LAS ARBOLEDAS,21.90228040954603,-102.30403838954138,20020
239,Aguascalientes,Aguascalientes,CALLE EUCALIPTO,539,LAS ARBOLEDAS,21.902385811103173,-102.3040731702879,20020
240,Aguascalientes,Aguascalientes,CALLE EUCALIPTO,539A,LAS ARBOLEDAS,21.902501752343177,-102.30411142901775,20020
241,Aguascalientes,Aguascalientes,CALLE EUCALIPTO,541,LAS ARBOLEDAS,21.902596179048732,-102.30414258835003,20020
242,Aguascalientes,Aguascalientes,CALLE EUCALIPTO,543A,LAS ARBOLEDAS,21.902693159373563,-102.30417459038344,20020
243,Aguascalientes,Aguascalientes,AVENIDA CANAL INTERCEPTOR,543A,LAS ARBOLEDAS,21.902797155953653,-102.30368142567377,20020
244,Aguascalientes,Aguascalientes,CALLE LAUREL,SN,LAS ARBOLEDAS,21.902764551943772,-102.3032704253525,20020
245,Aguascalientes,Aguascalientes,CALLE LAUREL,SN,LAS ARBOLEDAS,21.9026988409844,-102.30324977101117,20020
246,Aguascalientes,Aguascalientes,CALLE LAUREL,SN,LAS ARBOLEDAS,21.90262606752684,-102.3032268968017,20020
247,Aguascalientes,Aguascalientes,CALLE LAUREL,436,LAS ARBOLEDAS,21.902539993097083,-102.30319984185307,20020
248,Aguascalientes,Aguascalientes,CALLE LAUREL,434,LAS ARBOLEDAS,21.902475429740356,-102.30317954829663,20020
249,Aguascalientes,Aguascalientes,CALLE LAUREL,432,LAS ARBOLEDAS,21.902405201711996,-102.30315747424304,20020
250,Aguascalientes,Aguascalientes,CALLE LAUREL,430,LAS ARBOLEDAS,21.902333575855337,-102.30313496084877,20020
251,Aguascalientes,Aguascalientes,CALLE LAUREL,428,LAS ARBOLEDAS,21.902264171848,-102.30311314584814,20020
252,Aguascalientes,Aguascalientes,CALLE LAUREL,426,LAS ARBOLEDAS,21.90219139838193,-102.30309027178727,20020
253,Aguascalientes,Aguascalientes,CALLE LAUREL,424,LAS ARBOLEDAS,21.9021203463245,-102.30306793882174,20020
254,Aguascalientes,Aguascalientes,CALLE LAUREL,422,LAS ARBOLEDAS,21.902061374268833,-102.30304940284078,20020
255,Aguascalientes,Aguascalientes,CALLE LAUREL,420,LAS ARBOLEDAS,21.901984907758134,-102.30302536806175,20020
256,Aguascalientes,Aguascalientes,CALLE LAUREL,418,LAS ARBOLEDAS,21.901921742218907,-102.30300551403478,20020
257,Aguascalientes,Aguascalientes,CALLE LAUREL,416,LAS ARBOLEDAS,21.901848394942714,-102.30298245973485,20020
258,Aguascalientes,Aguascalientes,CALLE LAUREL,414,LAS ARBOLEDAS,21.901755007775837,-102.3029531065927,20020
259,Aguascalientes,Aguascalientes,CALLE LAUREL,412,LAS ARBOLEDAS,21.901668432885156,-102.30292589469967,20020
260,Aguascalientes,Aguascalientes,CALLE LAUREL,410,LAS ARBOLEDAS,21.901601324079163,-102.3029048013376,20020
261,Aguascalientes,Aguascalientes,CALLE LAUREL,408,LAS ARBOLEDAS,21.901544647229073,-102.3028869869215,20020
262,Aguascalientes,Aguascalientes,CALLE LAUREL,406,LAS ARBOLEDAS,21.901465061470038,-102.30286197190469,20020
263,Aguascalientes,Aguascalientes,CALLE LAUREL,406A,LAS ARBOLEDAS,21.90141569733763,-102.30284645602086,20020
264,Aguascalientes,Aguascalientes,CALLE LAUREL,404,LAS ARBOLEDAS,21.90136296374636,-102.3028298810787,20020
265,Aguascalientes,Aguascalientes,CALLE LAUREL,402,LAS ARBOLEDAS,21.901309656350897,-102.30281312579493,20020
266,Aguascalientes,Aguascalientes,CALLE LAUREL,400,LAS ARBOLEDAS,21.901229570146047,-102.30278795357046,20020
267,Aguascalientes,Aguascalientes,CALLE ABEDUL,510,LAS ARBOLEDAS,21.901103647299202,-102.30298201565559,20020
268,Aguascalientes,Aguascalientes,CALLE ABEDUL,609,LAS ARBOLEDAS,21.901065012542958,-102.30311340018531,20020
269,Aguascalientes,Aguascalientes,CALLE CASUARINA,SN,LAS ARBOLEDAS,21.901179447033947,-102.30321911760333,20020
270,Aguascalientes,Aguascalientes,CALLE CASUARINA,505C,LAS ARBOLEDAS,21.901211866508408,-102.30322941591567,20020
271,Aguascalientes,Aguascalientes,CALLE CASUARINA,505B,LAS ARBOLEDAS,21.901247643635934,-102.30324078082,20020
272,Aguascalientes,Aguascalientes,CALLE CASUARINA,505A,LAS ARBOLEDAS,21.90128423114097,-102.30325240315392,20020
273,Aguascalientes,Aguascalientes,CALLE CASUARINA,SN,LAS ARBOLEDAS,21.9013223241313,-102.30326450372499,20020
274,Aguascalientes,Aguascalientes,CALLE CASUARINA,509,LAS ARBOLEDAS,21.901399551900486,-102.30328903582193,20020
275,Aguascalientes,Aguascalientes,CALLE CASUARINA,511,LAS ARBOLEDAS,21.901469716807767,-102.30331132436214,20020
276,Aguascalientes,Aguascalientes,CALLE CASUARINA,511A,LAS ARBOLEDAS,21.901539071335858,-102.30333335550121,20020
277,Aguascalientes,Aguascalientes,CALLE CASUARINA,513,LAS ARBOLEDAS,21.901605299621487,-102.30335439358072,20020
278,Aguascalientes,Aguascalientes,CALLE CASUARINA,515,LAS ARBOLEDAS,21.901715525820183,-102.30338940808583,20020
279,Aguascalientes,Aguascalientes,CALLE CASUARINA,517,LAS ARBOLEDAS,21.901794374336248,-102.3034144551779,20020
280,Aguascalientes,Aguascalientes,CALLE CASUARINA,SN,LAS ARBOLEDAS,21.90186766547657,-102.30343773693582,20020
281,Aguascalientes,Aguascalientes,CALLE CASUARINA,521,LAS ARBOLEDAS,21.901949987783897,-102.30346388757687,20020
282,Aguascalientes,Aguascalientes,CALLE CASUARINA,523,LAS ARBOLEDAS,21.902026057607873,-102.30348805207278,20020
283,Aguascalientes,Aguascalientes,CALLE CASUARINA,525,LAS ARBOLEDAS,21.902112547941705,-102.3035155268032,20020
284,Aguascalientes,Aguascalientes,CALLE CASUARINA,SN,LAS ARBOLEDAS,21.90218363935443,-102.30353810990185,20020
285,Aguascalientes,Aguascalientes,CALLE CASUARINA,529,LAS ARBOLEDAS,21.902251835937065,-102.30355977344358,20020
286,Aguascalientes,Aguascalientes,CALLE CASUARINA,531,LAS ARBOLEDAS,21.902326516411218,-102.30358349670459,20020
287,Aguascalientes,Aguascalientes,CALLE CASUARINA,533,LAS ARBOLEDAS,21.902402354815198,-102.30360758782523,20020
288,Aguascalientes,Aguascalientes,CALLE CASUARINA,535,LAS ARBOLEDAS,21.902476456320482,-102.30363112722277,20020
289,Aguascalientes,Aguascalientes,CALLE CASUARINA,537,LAS ARBOLEDAS,21.90256804119249,-102.30366022049725,20020
290,Aguascalientes,Aguascalientes,CALLE CASUARINA,SN,LAS ARBOLEDAS,21.902632301149968,-102.30368063363709,20020
291,Aguascalientes,Aguascalientes,CALLE CASUARINA,SN,LAS ARBOLEDAS,21.902720759777804,-102.30370873388037,20020
292,Aguascalientes,Aguascalientes,CALLE MARGIL DE JESÚS,1502,LAS ARBOLEDAS,21.89981883281656,-102.3023482091212,20020
293,Aguascalientes,Aguascalientes,CALLE LAUREL,326,LAS ARBOLEDAS,21.8995569242953,-102.30223849165748,20020
294,Aguascalientes,Aguascalientes,CALLE LAUREL,324,LAS ARBOLEDAS,21.89932665518561,-102.30216662157885,20020
295,Aguascalientes,Aguascalientes,CALLE LAUREL,318,LAS ARBOLEDAS,21.899103591792727,-102.302097000741,20020
296,Aguascalientes,Aguascalientes,CALLE LAUREL,310,LAS ARBOLEDAS,21.898866356585934,-102.30202295696421,20020
297,Aguascalientes,Aguascalientes,CALLE LAUREL,SN,LAS ARBOLEDAS,21.89876899667918,-102.30199256991935,20020
298,Aguascalientes,Aguascalientes,CALLE LAUREL,SN,LAS ARBOLEDAS,21.898639971230452,-102.30195229979705,20020
299,Aguascalientes,Aguascalientes,AVENIDA CONVENCIÓN 1914 NORTE,1407,LAS ARBOLEDAS,21.89821989625861,-102.30187088960622,20020
300,Aguascalientes,Aguascalientes,AVENIDA CONVENCIÓN 1914 NORTE,1405,LAS ARBOLEDAS,21.89819519746928,-102.30196503041645,20020
301,Aguascalientes,Aguascalientes,AVENIDA CONVENCIÓN 1914 NORTE,1403,LAS ARBOLEDAS,21.89817145815029,-102.3020555139129,20020
302,Aguascalientes,Aguascalientes,AVENIDA CONVENCIÓN 1914 NORTE,1401,LAS ARBOLEDAS,21.898146984436334,-102.3021487963441,20020
303,Aguascalientes,Aguascalientes,CALLE CASUARINA,303,LAS ARBOLEDAS,21.898435076084834,-102.30232106032923,20020
304,Aguascalientes,Aguascalientes,CALLE CASUARINA,305,LAS ARBOLEDAS,21.898563945233256,-102.30236181326275,20020
305,Aguascalientes,Aguascalientes,CALLE CASUARINA,307,LAS ARBOLEDAS,21.898658349957316,-102.3023916673902,20020
306,Aguascalientes,Aguascalientes,CALLE CASUARINA,309,LAS ARBOLEDAS,21.89877314541899,-102.30242796985102,20020
307,Aguascalientes,Aguascalientes,CALLE CASUARINA,311,LAS ARBOLEDAS,21.89889535014805,-102.30246661545885,20020
308,Aguascalientes,Aguascalientes,CALLE CASUARINA,315,LAS ARBOLEDAS,21.89907083076254,-102.30252210897714,20020
309,Aguascalientes,Aguascalientes,CALLE CASUARINA,317,LAS ARBOLEDAS,21.899248109075632,-102.30257817114531,20020
310,Aguascalientes,Aguascalientes,CALLE CASUARINA,321,LAS ARBOLEDAS,21.89936088836953,-102.30261383634085,20020
311,Aguascalientes,Aguascalientes,CALLE CASUARINA,SN,LAS ARBOLEDAS,21.89945634591616,-102.30264402377455,20020
312,Aguascalientes,Aguascalientes,CALLE CASUARINA,SN,LAS ARBOLEDAS,21.899532465567944,-102.30266809583614,20020
313,Aguascalientes,Aguascalientes,CALLE CASUARINA,327,LAS ARBOLEDAS,21.89959166099227,-102.30268681580313,20020
314,Aguascalientes,Aguascalientes,CALLE CASUARINA,329,LAS ARBOLEDAS,21.899679709263335,-102.30271466022847,20020
315,Aguascalientes,Aguascalientes,CALLE MARGIL DE JESÚS,1606,LAS ARBOLEDAS,21.899603704355687,-102.30311075171966,20020
316,Aguascalientes,Aguascalientes,CALLE MARGIL DE JESÚS,1604,LAS ARBOLEDAS,21.899635742479568,-102.3029962971633,20020
317,Aguascalientes,Aguascalientes,CALLE MARGIL DE JESÚS,1602,LAS ARBOLEDAS,21.899664278462584,-102.30289435352427,20020
318,Aguascalientes,Aguascalientes,CALLE CASUARINA,SN,LAS ARBOLEDAS,21.899515907713326,-102.30278191194547,20020
319,Aguascalientes,Aguascalientes,CALLE CASUARINA,328,LAS ARBOLEDAS,21.899407019407263,-102.30274753573133,20020
320,Aguascalientes,Aguascalientes,CALLE CASUARINA,326,LAS ARBOLEDAS,21.899321286426343,-102.30272046973082,20020
321,Aguascalientes,Aguascalientes,CALLE CASUARINA,324,LAS ARBOLEDAS,21.899240201156918,-102.30269487105066,20020
322,Aguascalientes,Aguascalientes,CALLE CASUARINA,320,LAS ARBOLEDAS,21.899144509110805,-102.30266466104082,20020
323,Aguascalientes,Aguascalientes,CALLE CASUARINA,318,LAS ARBOLEDAS,21.89906574769433,-102.30263979606922,20020
324,Aguascalientes,Aguascalientes,CALLE CASUARINA,312,LAS ARBOLEDAS,21.89888454386383,-102.30258259015052,20020
325,Aguascalientes,Aguascalientes,CALLE CASUARINA,310,LAS ARBOLEDAS,21.898762625746773,-102.30254410077758,20020
326,Aguascalientes,Aguascalientes,CALLE CASUARINA,308,LAS ARBOLEDAS,21.898682812999237,-102.30251890404749,20020
327,Aguascalientes,Aguascalientes,CALLE CASUARINA,306,LAS ARBOLEDAS,21.898394602247915,-102.30242791672526,20020
328,Aguascalientes,Aguascalientes,AVENIDA CONVENCIÓN 1914 NORTE,1507,LAS ARBOLEDAS,21.898078536087443,-102.30239094010396,20020
329,Aguascalientes,Aguascalientes,AVENIDA CONVENCIÓN 1914 NORTE,1505,LAS ARBOLEDAS,21.89802740406496,-102.30257414344308,20020
330,Aguascalientes,Aguascalientes,CALLE EUCALIPTO,301,LAS ARBOLEDAS,21.898184925720486,-102.30271468464464,20020
331,Aguascalientes,Aguascalientes,CALLE EUCALIPTO,303,LAS ARBOLEDAS,21.898306687224483,-102.3027519052404,20020
332,Aguascalientes,Aguascalientes,CALLE EUCALIPTO,305,LAS ARBOLEDAS,21.898385111053198,-102.30277587822006,20020
333,Aguascalientes,Aguascalientes,CALLE EUCALIPTO,307,LAS ARBOLEDAS,21.898530877186676,-102.30282043680076,20020
334,Aguascalientes,Aguascalientes,CALLE EUCALIPTO,309,LAS ARBOLEDAS,21.898667368966535,-102.30286216043616,20020
335,Aguascalientes,Aguascalientes,CALLE EUCALIPTO,311,LAS ARBOLEDAS,21.898802019146363,-102.30290332120481,20020
336,Aguascalientes,Aguascalientes,CALLE EUCALIPTO,313,LAS ARBOLEDAS,21.898899264583353,-102.30293304789349,20020
337,Aguascalientes,Aguascalientes,CALLE EUCALIPTO,315,LAS ARBOLEDAS,21.89896350395831,-102.3029526850744,20020
338,Aguascalientes,Aguascalientes,CALLE EUCALIPTO,317,LAS ARBOLEDAS,21.899021571908698,-102.30297043574379,20020
339,Aguascalientes,Aguascalientes,CALLE EUCALIPTO,319,LAS ARBOLEDAS,21.899088129868787,-102.30299078172558,20020
340,Aguascalientes,Aguascalientes,CALLE EUCALIPTO,321,LAS ARBOLEDAS,21.899157790752085,-102.30301207625635,20020
341,Aguascalientes,Aguascalientes,CALLE EUCALIPTO,323,LAS ARBOLEDAS,21.899214801441712,-102.30302950378517,20020
342,Aguascalientes,Aguascalientes,CALLE EUCALIPTO,325,LAS ARBOLEDAS,21.899283166569152,-102.30305040225824,20020
343,Aguascalientes,Aguascalientes,CALLE EUCALIPTO,327,LAS ARBOLEDAS,21.899354088777997,-102.30307208242607,20020
344,Aguascalientes,Aguascalientes,CALLE EUCALIPTO,329,LAS ARBOLEDAS,21.899450857211036,-102.30310166354847,20020
345,Aguascalientes,Aguascalientes,CALLE MARGIL DE JESÚS,1706,LAS ARBOLEDAS,21.899483885742498,-102.30358117763625,20020
346,Aguascalientes,Aguascalientes,CALLE MARGIL DE JESÚS,1704,LAS ARBOLEDAS,21.899518643356775,-102.30344502887782,20020
347,Aguascalientes,Aguascalientes,CALLE MARGIL DE JESÚS,1702,LAS ARBOLEDAS,21.899550509241063,-102.30332020681483,20020
348,Aguascalientes,Aguascalientes,CALLE EUCALIPTO,330,LAS ARBOLEDAS,21.899415527016053,-102.30321340209507,20020
349,Aguascalientes,Aguascalientes,CALLE EUCALIPTO,328,LAS ARBOLEDAS,21.899347549525263,-102.3031919702939,20020
350,Aguascalientes,Aguascalientes,CALLE EUCALIPTO,326,LAS ARBOLEDAS,21.89925154320881,-102.30316170166093,20020
351,Aguascalientes,Aguascalientes,CALLE EUCALIPTO,324,LAS ARBOLEDAS,21.89916663002491,-102.30313493048008,20020
352,Aguascalientes,Aguascalientes,CALLE EUCALIPTO,322,LAS ARBOLEDAS,21.899105623445443,-102.30311569652508,20020
353,Aguascalientes,Aguascalientes,CALLE EUCALIPTO,320,LAS ARBOLEDAS,21.8990431199357,-102.30309599064132,20020
354,Aguascalientes,Aguascalientes,CALLE EUCALIPTO,318,LAS ARBOLEDAS,21.898986458980268,-102.30307812679342,20020
355,Aguascalientes,Aguascalientes,CALLE EUCALIPTO,316,LAS ARBOLEDAS,21.89887164013742,-102.30304192719795,20020
356,Aguascalientes,Aguascalientes,CALLE EUCALIPTO,312,LAS ARBOLEDAS,21.898675058444034,-102.30297994990619,20020
357,Aguascalientes,Aguascalientes,CALLE EUCALIPTO,310,LAS ARBOLEDAS,21.898579800574726,-102.3029499175489,20020
358,Aguascalientes,Aguascalientes,CALLE EUCALIPTO,308,LAS ARBOLEDAS,21.898481772250634,-102.30291901178389,20020
359,Aguascalientes,Aguascalientes,CALLE EUCALIPTO,306,LAS ARBOLEDAS,21.898375722890332,-102.30288557724799,20020
360,Aguascalientes,Aguascalientes,CALLE EUCALIPTO,304,LAS ARBOLEDAS,21.898287212524135,-102.30285767233062,20020
361,Aguascalientes,Aguascalientes,CALLE EUCALIPTO,302,LAS ARBOLEDAS,21.89822927803411,-102.30283940717791,20020
362,Aguascalientes,Aguascalientes,CALLE EUCALIPTO,300,LAS ARBOLEDAS,21.898154932906554,-102.30281596822572,20020
363,Aguascalientes,Aguascalientes,AVENIDA CONVENCIÓN 1914 NORTE,1503A,LAS ARBOLEDAS,21.897948058902042,-102.30287262499361,20020
364,Aguascalientes,Aguascalientes,AVENIDA CONVENCIÓN 1914 NORTE,1511,LAS ARBOLEDAS,21.897893015436395,-102.30306756049333,20020
365,Aguascalientes,Aguascalientes,CALLE JACARANDÁ,303,LAS ARBOLEDAS,21.898186407393915,-102.30321918918916,20020
366,Aguascalientes,Aguascalientes,CALLE JACARANDÁ,305,LAS ARBOLEDAS,21.898275665930235,-102.3032473308994,20020
367,Aguascalientes,Aguascalientes,CALLE JACARANDÁ,307,LAS ARBOLEDAS,21.898370398515485,-102.30327719852671,20020
368,Aguascalientes,Aguascalientes,CALLE JACARANDÁ,309,LAS ARBOLEDAS,21.898473152157916,-102.30330959511019,20020
369,Aguascalientes,Aguascalientes,CALLE JACARANDÁ,311,LAS ARBOLEDAS,21.898589165908902,-102.30334617245514,20020
370,Aguascalientes,Aguascalientes,CALLE JACARANDÁ,313,LAS ARBOLEDAS,21.89867722926406,-102.30337393751483,20020
371,Aguascalientes,Aguascalientes,CALLE JACARANDÁ,315,LAS ARBOLEDAS,21.89877218520665,-102.303403875746,20020
372,Aguascalientes,Aguascalientes,CALLE JACARANDÁ,317,LAS ARBOLEDAS,21.898830867996445,-102.30342237759992,20020
373,Aguascalientes,Aguascalientes,CALLE JACARANDÁ,319,LAS ARBOLEDAS,21.89889314793023,-102.30344201360057,20020
374,Aguascalientes,Aguascalientes,CALLE JACARANDÁ,321,LAS ARBOLEDAS,21.89896209708442,-102.30346375233576,20020
375,Aguascalientes,Aguascalientes,CALLE JACARANDÁ,323,LAS ARBOLEDAS,21.899018981298788,-102.30348168717587,20020
376,Aguascalientes,Aguascalientes,CALLE JACARANDÁ,325,LAS ARBOLEDAS,21.89908231136587,-102.3035016543263,20020
377,Aguascalientes,Aguascalientes,CALLE JACARANDÁ,327,LAS ARBOLEDAS,21.899245993079184,-102.30355326114102,20020
378,Aguascalientes,Aguascalientes,CALLE JACARANDÁ,329,LAS ARBOLEDAS,21.899330682641754,-102.3035799627605,20020
379,Aguascalientes,Aguascalientes,CALLE ABEDUL,806,LAS ARBOLEDAS,21.900777137220082,-102.30395031377657,20020
380,Aguascalientes,Aguascalientes,CALLE ABEDUL,804,LAS ARBOLEDAS,21.900812593096273,-102.30382238774924,20020
381,Aguascalientes,Aguascalientes,CALLE EUCALIPTO,426,LAS ARBOLEDAS,21.900714838069142,-102.30362971390379,20020
382,Aguascalientes,Aguascalientes,CALLE EUCALIPTO,424,LAS ARBOLEDAS,21.900624228853097,-102.3036010066715,20020
383,Aguascalientes,Aguascalientes,CALLE EUCALIPTO,422A,LAS ARBOLEDAS,21.90056741308049,-102.30358300605496,20020
384,Aguascalientes,Aguascalientes,CALLE EUCALIPTO,420,LAS ARBOLEDAS,21.90051133735272,-102.30356523991789,20020
385,Aguascalientes,Aguascalientes,CALLE EUCALIPTO,418,LAS ARBOLEDAS,21.900459740709373,-102.3035488928757,20020
386,Aguascalientes,Aguascalientes,CALLE EUCALIPTO,416,LAS ARBOLEDAS,21.900398112992573,-102.303529367768,20020
387,Aguascalientes,Aguascalientes,CALLE EUCALIPTO,414,LAS ARBOLEDAS,21.900337299653852,-102.30351010069236,20020
388,Aguascalientes,Aguascalientes,CALLE EUCALIPTO,412,LAS ARBOLEDAS,21.900268806283876,-102.3034884004261,20020
389,Aguascalientes,Aguascalientes,CALLE EUCALIPTO,410A,LAS ARBOLEDAS,21.90020619775648,-102.30346856463237,20020
390,Aguascalientes,Aguascalientes,CALLE EUCALIPTO,410,LAS ARBOLEDAS,21.9001405724726,-102.30344777308244,20020
391,Aguascalientes,Aguascalientes,CALLE EUCALIPTO,408,LAS ARBOLEDAS,21.900078371132597,-102.30342806633325,20020
392,Aguascalientes,Aguascalientes,CALLE EUCALIPTO,406,LAS ARBOLEDAS,21.900005713766667,-102.30340504690932,20020
393,Aguascalientes,Aguascalientes,CALLE EUCALIPTO,404,LAS ARBOLEDAS,21.89990735016831,-102.30337388323586,20020
394,Aguascalientes,Aguascalientes,CALLE MARGIL DE JESÚS,SN,LAS ARBOLEDAS,21.89964295832775,-102.30334813391809,20020
395,Aguascalientes,Aguascalientes,CALLE MARGIL DE JESÚS,SN,LAS ARBOLEDAS,21.899608178015768,-102.30348907454139,20020
396,Aguascalientes,Aguascalientes,CALLE MARGIL DE JESÚS,SN,LAS ARBOLEDAS,21.899581799324622,-102.30359596879157,20020
397,Aguascalientes,Aguascalientes,CALLE JACARANDÁ,401,LAS ARBOLEDAS,21.899797894688955,-102.30373695628721,20020
398,Aguascalientes,Aguascalientes,CALLE JACARANDÁ,403,LAS ARBOLEDAS,21.899885848653284,-102.30376431056662,20020
399,Aguascalientes,Aguascalientes,CALLE JACARANDÁ,405,LAS ARBOLEDAS,21.899970617680875,-102.30379067434369,20020
400,Aguascalientes,Aguascalientes,CALLE JACARANDÁ,407,LAS ARBOLEDAS,21.90004543107107,-102.30381394187417,20020
401,Aguascalientes,Aguascalientes,CALLE JACARANDÁ,409,LAS ARBOLEDAS,21.900121847785805,-102.303837708078,20020
402,Aguascalientes,Aguascalientes,CALLE JACARANDÁ,411,LAS ARBOLEDAS,21.90020840969131,-102.30386462954995,20020
403,Aguascalientes,Aguascalientes,CALLE JACARANDÁ,413,LAS ARBOLEDAS,21.900277064482356,-102.30388598178564,20020
404,Aguascalientes,Aguascalientes,CALLE JACARANDÁ,415,LAS ARBOLEDAS,21.900328191273967,-102.30390188267592,20020
405,Aguascalientes,Aguascalientes,CALLE JACARANDÁ,SN,LAS ARBOLEDAS,21.90040102221734,-102.30392453377317,20020
406,Aguascalientes,Aguascalientes,CALLE JACARANDÁ,419,LAS ARBOLEDAS,21.900448373684426,-102.30393926053102,20020
407,Aguascalientes,Aguascalientes,CALLE JACARANDÁ,421,LAS ARBOLEDAS,21.900503297513982,-102.30395634237908,20020
408,Aguascalientes,Aguascalientes,CALLE JACARANDÁ,423,LAS ARBOLEDAS,21.900558811731294,-102.30397360785798,20020
409,Aguascalientes,Aguascalientes,AVENIDA CANAL INTERCEPTOR,701A,LAS ARBOLEDAS,21.902762671780163,-102.30445113537029,20020
410,Aguascalientes,Aguascalientes,AVENIDA CANAL INTERCEPTOR,701,LAS ARBOLEDAS,21.902768067366043,-102.30435950461519,20020
411,Aguascalientes,Aguascalientes,CALLE EUCALIPTO,546,LAS ARBOLEDAS,21.902671660148627,-102.30424593916669,20020
412,Aguascalientes,Aguascalientes,CALLE EUCALIPTO,544,LAS ARBOLEDAS,21.90260063966523,-102.3042234608688,20020
413,Aguascalientes,Aguascalientes,CALLE EUCALIPTO,SN,LAS ARBOLEDAS,21.90254087415153,-102.30420454483755,20020
414,Aguascalientes,Aguascalientes,CALLE EUCALIPTO,540,LAS ARBOLEDAS,21.902455522027243,-102.30417753056851,20020
415,Aguascalientes,Aguascalientes,CALLE EUCALIPTO,538,LAS ARBOLEDAS,21.902372983643826,-102.30415140689243,20020
416,Aguascalientes,Aguascalientes,CALLE EUCALIPTO,536,LAS ARBOLEDAS,21.902305677526364,-102.30413010430408,20020
417,Aguascalientes,Aguascalientes,CALLE EUCALIPTO,SN,LAS ARBOLEDAS,21.90221687394881,-102.30410199773841,20020
418,Aguascalientes,Aguascalientes,CALLE EUCALIPTO,532,LAS ARBOLEDAS,21.902135873893585,-102.30407636104123,20020
419,Aguascalientes,Aguascalientes,CALLE EUCALIPTO,530,LAS ARBOLEDAS,21.902068567771682,-102.30405505852835,20020
420,Aguascalientes,Aguascalientes,CALLE EUCALIPTO,528,LAS ARBOLEDAS,21.90201225369698,-102.30403723503565,20020
421,Aguascalientes,Aguascalientes,CALLE EUCALIPTO,526,LAS ARBOLEDAS,21.901943409239063,-102.30401544567782,20020
422,Aguascalientes,Aguascalientes,CALLE EUCALIPTO,524,LAS ARBOLEDAS,21.90187430185556,-102.30399357312666,20020
423,Aguascalientes,Aguascalientes,CALLE EUCALIPTO,522,LAS ARBOLEDAS,21.901805457395,-102.30397178381375,20020
424,Aguascalientes,Aguascalientes,CALLE EUCALIPTO,520A,LAS ARBOLEDAS,21.901743778753655,-102.3039522625063,20020
425,Aguascalientes,Aguascalientes,CALLE EUCALIPTO,520,LAS ARBOLEDAS,21.901708587355394,-102.30394112442698,20020
426,Aguascalientes,Aguascalientes,CALLE EUCALIPTO,518,LAS ARBOLEDAS,21.901637566852987,-102.30391864645259,20020
427,Aguascalientes,Aguascalientes,CALLE EUCALIPTO,SN,LAS ARBOLEDAS,21.901579602581357,-102.30390030079056,20020
428,Aguascalientes,Aguascalientes,CALLE EUCALIPTO,514,LAS ARBOLEDAS,21.901510120410325,-102.30387830974065,20020
429,Aguascalientes,Aguascalientes,CALLE EUCALIPTO,512A,LAS ARBOLEDAS,21.90143411012159,-102.3038542525735,20020
430,Aguascalientes,Aguascalientes,CALLE EUCALIPTO,512,LAS ARBOLEDAS,21.90137179376906,-102.30383452954185,20020
431,Aguascalientes,Aguascalientes,CALLE EUCALIPTO,SN,LAS ARBOLEDAS,21.901285278063632,-102.3038071474825,20020
432,Aguascalientes,Aguascalientes,CALLE EUCALIPTO,SN,LAS ARBOLEDAS,21.90118623197109,-102.30377579962327,20020
433,Aguascalientes,Aguascalientes,CALLE EUCALIPTO,508,LAS ARBOLEDAS,21.90110523189268,-102.30375016332088,20020
434,Aguascalientes,Aguascalientes,CALLE EUCALIPTO,502,LAS ARBOLEDAS,21.901039201161296,-102.30372926479914,20020
435,Aguascalientes,Aguascalientes,CALLE ABEDUL,SN,LAS ARBOLEDAS,21.900887593577483,-102.30374757082511,20020
436,Aguascalientes,Aguascalientes,CALLE ABEDUL,SN,LAS ARBOLEDAS,21.900856643001198,-102.30385428968157,20020
437,Aguascalientes,Aguascalientes,CALLE JACARANDÁ,SN,LAS ARBOLEDAS,21.900886453648564,-102.30408878326426,20020
438,Aguascalientes,Aguascalientes,CALLE JACARANDÁ,501,LAS ARBOLEDAS,21.9009574883883,-102.30411120800413,20020
439,Aguascalientes,Aguascalientes,CALLE JACARANDÁ,503,LAS ARBOLEDAS,21.901018542774487,-102.3041304820961,20020
440,Aguascalientes,Aguascalientes,CALLE JACARANDÁ,505,LAS ARBOLEDAS,21.901092759097512,-102.30415391126795,20020
441,Aguascalientes,Aguascalientes,CALLE JACARANDÁ,507,LAS ARBOLEDAS,21.9011777597043,-102.3041807449368,20020
442,Aguascalientes,Aguascalientes,CALLE JACARANDÁ,509,LAS ARBOLEDAS,21.901261588036235,-102.3042072085666,20020
443,Aguascalientes,Aguascalientes,CALLE JACARANDÁ,511,LAS ARBOLEDAS,21.901335436015035,-102.30423052154289,20020
444,Aguascalientes,Aguascalientes,CALLE JACARANDÁ,513,LAS ARBOLEDAS,21.901425426791672,-102.30425893065433,20020
445,Aguascalientes,Aguascalientes,CALLE JACARANDÁ,515,LAS ARBOLEDAS,21.901479682404695,-102.30427605858128,20020
446,Aguascalientes,Aguascalientes,CALLE JACARANDÁ,SN,LAS ARBOLEDAS,21.901533837655492,-102.30429315483904,20020
447,Aguascalientes,Aguascalientes,CALLE JACARANDÁ,519,LAS ARBOLEDAS,21.9016335407999,-102.3043246301369,20020
448,Aguascalientes,Aguascalientes,CALLE JACARANDÁ,521,LAS ARBOLEDAS,21.901722091318632,-102.30435258470106,20020
449,Aguascalientes,Aguascalientes,CALLE JACARANDÁ,523,LAS ARBOLEDAS,21.901787131210753,-102.304373117206,20020
450,Aguascalientes,Aguascalientes,CALLE JACARANDÁ,SN,LAS ARBOLEDAS,21.90185752961584,-102.30439534136784,20020
451,Aguascalientes,Aguascalientes,CALLE JACARANDÁ,527,LAS ARBOLEDAS,21.90191550276325,-102.30441364300219,20020
452,Aguascalientes,Aguascalientes,CALLE JACARANDÁ,529,LAS ARBOLEDAS,21.90198935072875,-102.30443695620629,20020
453,Aguascalientes,Aguascalientes,CALLE JACARANDÁ,SN,LAS ARBOLEDAS,21.902065007282356,-102.30446084039417,20020
454,Aguascalientes,Aguascalientes,CALLE JACARANDÁ,533,LAS ARBOLEDAS,21.902147294982118,-102.30448681801474,20020
455,Aguascalientes,Aguascalientes,CALLE JACARANDÁ,537,LAS ARBOLEDAS,21.902222683554694,-102.30451061766023,20020
456,Aguascalientes,Aguascalientes,CALLE JACARANDÁ,539,LAS ARBOLEDAS,21.902297703786505,-102.30453430105023,20020
457,Aguascalientes,Aguascalientes,CALLE JACARANDÁ,541,LAS ARBOLEDAS,21.902386522266866,-102.3045623404908,20020
458,Aguascalientes,Aguascalientes,CALLE JACARANDÁ,543,LAS ARBOLEDAS,21.902465728736082,-102.30458734551135,20020
459,Aguascalientes,Aguascalientes,CALLE JACARANDÁ,545,LAS ARBOLEDAS,21.902537667739654,-102.30461005626148,20020
460,Aguascalientes,Aguascalientes,CALLE JACARANDÁ,547,LAS ARBOLEDAS,21.902610243058728,-102.30463296791812,20020
461,Aguascalientes,Aguascalientes,CALLE JACARANDÁ,SN,LAS ARBOLEDAS,21.902684358987905,-102.30465636596361,20020
462,Aguascalientes,Aguascalientes,AVENIDA CANAL INTERCEPTOR,1001,LAS ARBOLEDAS,21.90282995792545,-102.30301441858849,20020
463,Aguascalientes,Aguascalientes,CALLE ACACIA,SN,LAS ARBOLEDAS,21.902736827212255,-102.30278125462765,20020
464,Aguascalientes,Aguascalientes,CALLE ACACIA,534,LAS ARBOLEDAS,21.902598184915234,-102.30273881646133,20020
465,Aguascalientes,Aguascalientes,CALLE ACACIA,532,LAS ARBOLEDAS,21.902521044149264,-102.30271520384554,20020
466,Aguascalientes,Aguascalientes,CALLE ACACIA,530,LAS ARBOLEDAS,21.902464829077676,-102.30269799655535,20020
467,Aguascalientes,Aguascalientes,CALLE ACACIA,528,LAS ARBOLEDAS,21.902402379853115,-102.30267888102404,20020
468,Aguascalientes,Aguascalientes,CALLE ACACIA,526,LAS ARBOLEDAS,21.90233803525126,-102.30265918534207,20020
469,Aguascalientes,Aguascalientes,CALLE ACACIA,524,LAS ARBOLEDAS,21.902250285651117,-102.3026323254941,20020
470,Aguascalientes,Aguascalientes,CALLE ACACIA,522,LAS ARBOLEDAS,21.90217409256705,-102.3026090030846,20020
471,Aguascalientes,Aguascalientes,CALLE ACACIA,520,LAS ARBOLEDAS,21.902111643338195,-102.30258988763634,20020
472,Aguascalientes,Aguascalientes,CALLE ACACIA,518,LAS ARBOLEDAS,21.902047626595003,-102.30257029239729,20020
473,Aguascalientes,Aguascalientes,CALLE ACACIA,516,LAS ARBOLEDAS,21.901994838506127,-102.30255413421348,20020
474,Aguascalientes,Aguascalientes,CALLE ACACIA,514,LAS ARBOLEDAS,21.901924879570384,-102.30253272013479,20020
475,Aguascalientes,Aguascalientes,CALLE ACACIA,512,LAS ARBOLEDAS,21.901844019840905,-102.30250796940624,20020
476,Aguascalientes,Aguascalientes,CALLE ACACIA,SN,LAS ARBOLEDAS,21.901758749531453,-102.30248186865576,20020
477,Aguascalientes,Aguascalientes,CALLE ACACIA,SN,LAS ARBOLEDAS,21.90167818176095,-102.30245720735643,20020
478,Aguascalientes,Aguascalientes,CALLE ACACIA,506,LAS ARBOLEDAS,21.901619487377182,-102.3024392413853,20020
479,Aguascalientes,Aguascalientes,CALLE ACACIA,504,LAS ARBOLEDAS,21.901558241889724,-102.30242049455492,20020
480,Aguascalientes,Aguascalientes,CALLE ACACIA,502,LAS ARBOLEDAS,21.901475194814363,-102.30239507443343,20020
481,Aguascalientes,Aguascalientes,CALLE ABEDUL,601,LAS ARBOLEDAS,21.901273217816076,-102.30238806334408,20020
482,Aguascalientes,Aguascalientes,CALLE ABEDUL,603,LAS ARBOLEDAS,21.901212487811513,-102.3025792456708,20020
483,Aguascalientes,Aguascalientes,CALLE LAUREL,401,LAS ARBOLEDAS,21.901287739127792,-102.30271153579557,20020
484,Aguascalientes,Aguascalientes,CALLE LAUREL,SN,LAS ARBOLEDAS,21.901368360625664,-102.30273706371922,20020
485,Aguascalientes,Aguascalientes,CALLE LAUREL,403,LAS ARBOLEDAS,21.901445644295393,-102.30276153478516,20020
486,Aguascalientes,Aguascalientes,CALLE LAUREL,405,LAS ARBOLEDAS,21.9015160243576,-102.30278381992102,20020
487,Aguascalientes,Aguascalientes,CALLE LAUREL,407,LAS ARBOLEDAS,21.90157770090323,-102.30280334919588,20020
488,Aguascalientes,Aguascalientes,CALLE LAUREL,409,LAS ARBOLEDAS,21.901654608599102,-102.30282770129116,20020
489,Aguascalientes,Aguascalientes,CALLE LAUREL,411,LAS ARBOLEDAS,21.901741233739447,-102.3028551303576,20020
490,Aguascalientes,Aguascalientes,CALLE LAUREL,413,LAS ARBOLEDAS,21.90183592443033,-102.30288511334894,20020
491,Aguascalientes,Aguascalientes,CALLE LAUREL,SN,LAS ARBOLEDAS,21.90191718387788,-102.30291084348727,20020
492,Aguascalientes,Aguascalientes,CALLE LAUREL,417,LAS ARBOLEDAS,21.901972970742893,-102.30292850795944,20020
493,Aguascalientes,Aguascalientes,CALLE LAUREL,419,LAS ARBOLEDAS,21.90204706458986,-102.3029519692167,20020
494,Aguascalientes,Aguascalientes,CALLE LAUREL,421,LAS ARBOLEDAS,21.90210438936939,-102.30297012069354,20020
495,Aguascalientes,Aguascalientes,CALLE LAUREL,423,LAS ARBOLEDAS,21.90217949714481,-102.30299390305136,20020
496,Aguascalientes,Aguascalientes,CALLE LAUREL,425,LAS ARBOLEDAS,21.902250777147184,-102.30301647339645,20020
497,Aguascalientes,Aguascalientes,CALLE LAUREL,427,LAS ARBOLEDAS,21.902329860707006,-102.30304151471547,20020
498,Aguascalientes,Aguascalientes,CALLE LAUREL,429,LAS ARBOLEDAS,21.902384371641816,-102.30305877528265,20020
499,Aguascalientes,Aguascalientes,CALLE LAUREL,431,LAS ARBOLEDAS,21.902456665571247,-102.30308166675266,20020
500,Aguascalientes,Aguascalientes,CALLE LAUREL,433,LAS ARBOLEDAS,21.902532673293777,-102.30310573420175,20020
501,Aguascalientes,Aguascalientes,CALLE LAUREL,435,LAS ARBOLEDAS,21.90260650513655,-102.3031291126965,20020
502,Aguascalientes,Aguascalientes,CALLE LAUREL,437,LAS ARBOLEDAS,21.902665367823435,-102.3031477512995,20020
503,Aguascalientes,Aguascalientes,CALLE LAUREL,439,LAS ARBOLEDAS,21.902712075195204,-102.30316254098894,20020
504,Aguascalientes,Aguascalientes,CALLE LAUREL,439A,LAS ARBOLEDAS,21.902766586124198,-102.3031798016547,20020
505,Aguascalientes,Aguascalientes,CALLE ACACIA,SN,LAS ARBOLEDAS,21.899729571723093,-102.30183459952265,20020
506,Aguascalientes,Aguascalientes,CALLE ACACIA,SN,LAS ARBOLEDAS,21.899614748958363,-102.30179781700313,20020
507,Aguascalientes,Aguascalientes,CALLE ACACIA,SN,LAS ARBOLEDAS,21.899530261732593,-102.30177075226277,20020
508,Aguascalientes,Aguascalientes,CALLE ACACIA,320,LAS ARBOLEDAS,21.89942109982108,-102.30173578325527,20020
509,Aguascalientes,Aguascalientes,CALLE ACACIA,318,LAS ARBOLEDAS,21.899309302926465,-102.30169997021561,20020
510,Aguascalientes,Aguascalientes,CALLE ACACIA,SN,LAS ARBOLEDAS,21.899187374394504,-102.30166091167476,20020
511,Aguascalientes,Aguascalientes,CALLE ACACIA,SN,LAS ARBOLEDAS,21.899013266055018,-102.30160513799943,20020
512,Aguascalientes,Aguascalientes,CALLE ACACIA,SN,LAS ARBOLEDAS,21.89862458216355,-102.30148062795992,20020
513,Aguascalientes,Aguascalientes,CALLE LAUREL,1305,LAS ARBOLEDAS,21.8985126673989,-102.30184778338422,20020
514,Aguascalientes,Aguascalientes,CALLE LAUREL,309,LAS ARBOLEDAS,21.89872827887477,-102.30191474268338,20020
515,Aguascalientes,Aguascalientes,CALLE LAUREL,307,LAS ARBOLEDAS,21.898777529065015,-102.30193003762463,20020
516,Aguascalientes,Aguascalientes,CALLE LAUREL,311,LAS ARBOLEDAS,21.898979862658123,-102.30199287365272,20020
517,Aguascalientes,Aguascalientes,CALLE LAUREL,313,LAS ARBOLEDAS,21.89908420918795,-102.30202527922935,20020
518,Aguascalientes,Aguascalientes,CALLE LAUREL,315,LAS ARBOLEDAS,21.899208215857467,-102.3020637904727,20020
519,Aguascalientes,Aguascalientes,CALLE LAUREL,317,LAS ARBOLEDAS,21.89930926001488,-102.30209517058161,20020
520,Aguascalientes,Aguascalientes,CALLE LAUREL,321,LAS ARBOLEDAS,21.89938682834413,-102.30211926010821,20020
521,Aguascalientes,Aguascalientes,CALLE LAUREL,323,LAS ARBOLEDAS,21.899491688181254,-102.30215182529768,20020
522,Aguascalientes,Aguascalientes,CALLE LAUREL,325,LAS ARBOLEDAS,21.899558031912548,-102.30217242898209,20020
523,Aguascalientes,Aguascalientes,CALLE LAUREL,327,LAS ARBOLEDAS,21.899650149997687,-102.30220103717464,20020
524,Aguascalientes,Aguascalientes,CALLE LAUREL,329,LAS ARBOLEDAS,21.899720309410313,-102.30222282590871,20020
525,Aguascalientes,Aguascalientes,CALLE LAUREL,SN,LAS ARBOLEDAS,21.899811025237675,-102.30224190660506,20020
526,Aguascalientes,Aguascalientes,CALLE MARGIL DE JESÚS,1804,LAS ARBOLEDAS,21.89935583513995,-102.30404037576193,20020
527,Aguascalientes,Aguascalientes,CALLE JACARANDÁ,322,LAS ARBOLEDAS,21.899425230460835,-102.30370583355425,20020
528,Aguascalientes,Aguascalientes,CALLE JACARANDÁ,330,LAS ARBOLEDAS,21.899273116919453,-102.30365624590819,20020
529,Aguascalientes,Aguascalientes,CALLE JACARANDÁ,328,LAS ARBOLEDAS,21.899191263792442,-102.30362956257278,20020
530,Aguascalientes,Aguascalientes,CALLE JACARANDÁ,326,LAS ARBOLEDAS,21.89909972112644,-102.30359972057995,20020
531,Aguascalientes,Aguascalientes,CALLE JACARANDÁ,320,LAS ARBOLEDAS,21.898918291550437,-102.30354057647736,20020
532,Aguascalientes,Aguascalientes,CALLE JACARANDÁ,318,LAS ARBOLEDAS,21.89883908144459,-102.30351475488081,20020
533,Aguascalientes,Aguascalientes,CALLE JACARANDÁ,316,LAS ARBOLEDAS,21.898768821014993,-102.3034918508034,20020
534,Aguascalientes,Aguascalientes,CALLE JACARANDÁ,314,LAS ARBOLEDAS,21.898671851912113,-102.30346024005154,20020
535,Aguascalientes,Aguascalientes,CALLE JACARANDÁ,312,LAS ARBOLEDAS,21.898580309231047,-102.30343039829033,20020
536,Aguascalientes,Aguascalientes,CALLE JACARANDÁ,310,LAS ARBOLEDAS,21.89849042231152,-102.3034010963271,20020
537,Aguascalientes,Aguascalientes,CALLE JACARANDÁ,308,LAS ARBOLEDAS,21.89840539799946,-102.30337337954744,20020
538,Aguascalientes,Aguascalientes,CALLE JACARANDÁ,304,LAS ARBOLEDAS,21.898318330150452,-102.30334499663955,20020
539,Aguascalientes,Aguascalientes,CALLE JACARANDÁ,302,LAS ARBOLEDAS,21.89823091020962,-102.30331649899257,20020
540,Aguascalientes,Aguascalientes,AVENIDA CONVENCIÓN 1914 NORTE,1603,LAS ARBOLEDAS,21.897761159867596,-102.3035404864655,20020
541,Aguascalientes,Aguascalientes,CALLE TABACHÍN,107,LAS ARBOLEDAS,21.89797899210113,-102.30363947119184,20020
542,Aguascalientes,Aguascalientes,CALLE TABACHÍN,109,LAS ARBOLEDAS,21.89811750451386,-102.30368254168279,20020
543,Aguascalientes,Aguascalientes,CALLE TABACHÍN,111,LAS ARBOLEDAS,21.898204666546768,-102.30370964479877,20020
544,Aguascalientes,Aguascalientes,CALLE TABACHÍN,113,LAS ARBOLEDAS,21.898285897934354,-102.30373490380734,20020
545,Aguascalientes,Aguascalientes,CALLE TABACHÍN,115,LAS ARBOLEDAS,21.898381670686536,-102.30376468451271,20020
546,Aguascalientes,Aguascalientes,CALLE TABACHÍN,117,LAS ARBOLEDAS,21.898477414713224,-102.30379445632919,20020
547,Aguascalientes,Aguascalientes,CALLE TABACHÍN,119,LAS ARBOLEDAS,21.89866516788213,-102.30385283871729,20020
548,Aguascalientes,Aguascalientes,CALLE TABACHÍN,SN,LAS ARBOLEDAS,21.89874397569935,-102.30387734428449,20020
549,Aguascalientes,Aguascalientes,CALLE TABACHÍN,SN,LAS ARBOLEDAS,21.89883624135858,-102.30390603465212,20020
550,Aguascalientes,Aguascalientes,CALLE TABACHÍN,125,LAS ARBOLEDAS,21.898911570813826,-102.30392945867071,20020
551,Aguascalientes,Aguascalientes,CALLE TABACHÍN,127,LAS ARBOLEDAS,21.898994142226474,-102.30395513463795,20020
552,Aguascalientes,Aguascalientes,CALLE TABACHÍN,129,LAS ARBOLEDAS,21.899096615159557,-102.30398699912094,20020
553,Aguascalientes,Aguascalientes,CALLE TABACHÍN,131,LAS ARBOLEDAS,21.89917972832876,-102.30401284362271,20020
554,Aguascalientes,Aguascalientes,CALLE ABEDUL,805,LAS ARBOLEDAS,21.900650059734748,-102.30443316809638,20020
555,Aguascalientes,Aguascalientes,CALLE JACARANDÁ,426,LAS ARBOLEDAS,21.900529380412426,-102.3040349743608,20020
556,Aguascalientes,Aguascalientes,CALLE JACARANDÁ,422,LAS ARBOLEDAS,21.900443058682676,-102.30400922097778,20020
557,Aguascalientes,Aguascalientes,CALLE JACARANDÁ,420,LAS ARBOLEDAS,21.900368295565794,-102.30398691603969,20020
558,Aguascalientes,Aguascalientes,CALLE JACARANDÁ,418,LAS ARBOLEDAS,21.90028850192522,-102.30396311031566,20020
559,Aguascalientes,Aguascalientes,CALLE JACARANDÁ,416,LAS ARBOLEDAS,21.900187880376393,-102.3039330908112,20020
560,Aguascalientes,Aguascalientes,CALLE JACARANDÁ,414,LAS ARBOLEDAS,21.900073679794748,-102.30389902018385,20020
561,Aguascalientes,Aguascalientes,CALLE JACARANDÁ,412,LAS ARBOLEDAS,21.899975474533772,-102.30386972165122,20020
562,Aguascalientes,Aguascalientes,CALLE JACARANDÁ,408,LAS ARBOLEDAS,21.899885888747914,-102.30384299468862,20020
563,Aguascalientes,Aguascalientes,CALLE JACARANDÁ,406,LAS ARBOLEDAS,21.899791470375675,-102.30381482601473,20020
564,Aguascalientes,Aguascalientes,CALLE JACARANDÁ,404,LAS ARBOLEDAS,21.899697772786038,-102.30378687241817,20020
565,Aguascalientes,Aguascalientes,CALLE JACARANDÁ,402,LAS ARBOLEDAS,21.899656243937212,-102.30377448277719,20020
566,Aguascalientes,Aguascalientes,CALLE MARGIL DE JESÚS,SN,LAS ARBOLEDAS,21.89953334512756,-102.3037858874086,20020
567,Aguascalientes,Aguascalientes,CALLE MARGIL DE JESÚS,1803,LAS ARBOLEDAS,21.8995006856074,-102.30390604695609,20020
568,Aguascalientes,Aguascalientes,CALLE MARGIL DE JESÚS,1805A,LAS ARBOLEDAS,21.899484081929046,-102.30396713436411,20020
569,Aguascalientes,Aguascalientes,CALLE MARGIL DE JESÚS,1805,LAS ARBOLEDAS,21.899464264552652,-102.30404004531009,20020
570,Aguascalientes,Aguascalientes,CALLE TABACHÍN,203A,LAS ARBOLEDAS,21.899559485869116,-102.30412894494111,20020
571,Aguascalientes,Aguascalientes,CALLE TABACHÍN,203,LAS ARBOLEDAS,21.899610266294843,-102.30414495494682,20020
572,Aguascalientes,Aguascalientes,CALLE TABACHÍN,205,LAS ARBOLEDAS,21.899690075763022,-102.30417011722719,20020
573,Aguascalientes,Aguascalientes,CALLE TABACHÍN,207,LAS ARBOLEDAS,21.899756192937968,-102.30419096263286,20020
574,Aguascalientes,Aguascalientes,CALLE TABACHÍN,209,LAS ARBOLEDAS,21.899828176588333,-102.30421365764323,20020
575,Aguascalientes,Aguascalientes,CALLE TABACHÍN,211,LAS ARBOLEDAS,21.899914715559923,-102.30424094168922,20020
576,Aguascalientes,Aguascalientes,CALLE TABACHÍN,213,LAS ARBOLEDAS,21.899964166399965,-102.30425653258847,20020
577,Aguascalientes,Aguascalientes,CALLE TABACHÍN,215,LAS ARBOLEDAS,21.900039672239526,-102.30428033815085,20020
578,Aguascalientes,Aguascalientes,CALLE TABACHÍN,217,LAS ARBOLEDAS,21.900120029851436,-102.30430567341529,20020
579,Aguascalientes,Aguascalientes,CALLE TABACHÍN,219,LAS ARBOLEDAS,21.900204609478315,-102.30433233983621,20020
580,Aguascalientes,Aguascalientes,CALLE TABACHÍN,221,LAS ARBOLEDAS,21.900289270707276,-102.30435903201912,20020
581,Aguascalientes,Aguascalientes,CALLE TABACHÍN,223,LAS ARBOLEDAS,21.900372520749634,-102.30438527931348,20020
582,Aguascalientes,Aguascalientes,CALLE TABACHÍN,225,LAS ARBOLEDAS,21.900459607861446,-102.30441273640488,20020
583,Aguascalientes,Aguascalientes,AVENIDA CANAL INTERCEPTOR,601B,LAS ARBOLEDAS,21.90272324470055,-102.30498609080486,20020
584,Aguascalientes,Aguascalientes,AVENIDA CANAL INTERCEPTOR,603A,LAS ARBOLEDAS,21.9027284423047,-102.30490630196178,20020
585,Aguascalientes,Aguascalientes,AVENIDA CANAL INTERCEPTOR,603B,LAS ARBOLEDAS,21.902731757546686,-102.3048554090782,20020
586,Aguascalientes,Aguascalientes,AVENIDA CANAL INTERCEPTOR,603C,LAS ARBOLEDAS,21.902735627695552,-102.30479599738698,20020
587,Aguascalientes,Aguascalientes,CALLE JACARANDÁ,552,LAS ARBOLEDAS,21.902668963398032,-102.30473128787281,20020
588,Aguascalientes,Aguascalientes,CALLE JACARANDÁ,550,LAS ARBOLEDAS,21.902577648933292,-102.30470213779344,20020
589,Aguascalientes,Aguascalientes,CALLE JACARANDÁ,SN,LAS ARBOLEDAS,21.902451278884442,-102.30466179707791,20020
590,Aguascalientes,Aguascalientes,CALLE JACARANDÁ,SN,LAS ARBOLEDAS,21.902320584576913,-102.30462007602448,20020
591,Aguascalientes,Aguascalientes,CALLE JACARANDÁ,542,LAS ARBOLEDAS,21.90221687377265,-102.30458696887267,20020
592,Aguascalientes,Aguascalientes,CALLE JACARANDÁ,540,LAS ARBOLEDAS,21.902147022099193,-102.30456467045433,20020
593,Aguascalientes,Aguascalientes,CALLE JACARANDÁ,SN,LAS ARBOLEDAS,21.902057739999975,-102.30453616938789,20020
594,Aguascalientes,Aguascalientes,CALLE JACARANDÁ,534A,LAS ARBOLEDAS,21.901969394854028,-102.30450796745836,20020
595,Aguascalientes,Aguascalientes,CALLE JACARANDÁ,SN,LAS ARBOLEDAS,21.901893186541535,-102.3044836399332,20020
596,Aguascalientes,Aguascalientes,CALLE JACARANDÁ,530,LAS ARBOLEDAS,21.901806455806756,-102.30445595343224,20020
597,Aguascalientes,Aguascalientes,CALLE JACARANDÁ,528,LAS ARBOLEDAS,21.901720143033884,-102.30442840039093,20020
598,Aguascalientes,Aguascalientes,CALLE JACARANDÁ,526,LAS ARBOLEDAS,21.901667948893238,-102.30441173882684,20020
599,Aguascalientes,Aguascalientes,CALLE JACARANDÁ,524,LAS ARBOLEDAS,21.90160565029467,-102.3043918517059,20020
600,Aguascalientes,Aguascalientes,CALLE JACARANDÁ,522,LAS ARBOLEDAS,21.901538609475846,-102.30437045078214,20020
601,Aguascalientes,Aguascalientes,CALLE JACARANDÁ,520,LAS ARBOLEDAS,21.90148250904141,-102.30435254228975,20020
602,Aguascalientes,Aguascalientes,CALLE JACARANDÁ,518,LAS ARBOLEDAS,21.901407915133813,-102.30432873029771,20020
603,Aguascalientes,Aguascalientes,CALLE JACARANDÁ,516,LAS ARBOLEDAS,21.90134035531956,-102.30430716376407,20020
604,Aguascalientes,Aguascalientes,CALLE JACARANDÁ,514,LAS ARBOLEDAS,21.901286806253296,-102.3042900697758,20020
605,Aguascalientes,Aguascalientes,CALLE JACARANDÁ,512,LAS ARBOLEDAS,21.901236226521753,-102.30427392367443,20020
606,Aguascalientes,Aguascalientes,CALLE JACARANDÁ,510,LAS ARBOLEDAS,21.90120507721874,-102.30426398017579,20020
607,Aguascalientes,Aguascalientes,CALLE JACARANDÁ,508,LAS ARBOLEDAS,21.901159758697307,-102.30424951357944,20020
608,Aguascalientes,Aguascalientes,CALLE JACARANDÁ,506,LAS ARBOLEDAS,21.901103658256712,-102.30423160518843,20020
609,Aguascalientes,Aguascalientes,CALLE JACARANDÁ,504,LAS ARBOLEDAS,21.901060631609717,-102.30421787022611,20020
610,Aguascalientes,Aguascalientes,CALLE JACARANDÁ,502,LAS ARBOLEDAS,21.90101234375067,-102.30420245579089,20020
611,Aguascalientes,Aguascalientes,CALLE ABEDUL,SN,LAS ARBOLEDAS,21.900781165051836,-102.30416385730923,20020
612,Aguascalientes,Aguascalientes,CALLE ABEDUL,SN,LAS ARBOLEDAS,21.900743112535956,-102.30429993085502,20020
613,Aguascalientes,Aguascalientes,CALLE ABEDUL,808,LAS ARBOLEDAS,21.900724605373192,-102.30436611119124,20020
614,Aguascalientes,Aguascalientes,CALLE TABACHÍN,301,LAS ARBOLEDAS,21.900776378406526,-102.30452085452683,20020
615,Aguascalientes,Aguascalientes,CALLE TABACHÍN,301,LAS ARBOLEDAS,21.900884311408173,-102.3045543558214,20020
616,Aguascalientes,Aguascalientes,CALLE TABACHÍN,SN,LAS ARBOLEDAS,21.900939905199138,-102.30457161158422,20020
617,Aguascalientes,Aguascalientes,CALLE TABACHÍN,305,LAS ARBOLEDAS,21.900996160512864,-102.30458907269205,20020
618,Aguascalientes,Aguascalientes,CALLE TABACHÍN,307,LAS ARBOLEDAS,21.90107019740946,-102.30461205305474,20020
619,Aguascalientes,Aguascalientes,CALLE TABACHÍN,SN,LAS ARBOLEDAS,21.901112640279536,-102.30462522693772,20020
620,Aguascalientes,Aguascalientes,CALLE TABACHÍN,SN,LAS ARBOLEDAS,21.9011794269324,-102.3046459569279,20020
621,Aguascalientes,Aguascalientes,CALLE TABACHÍN,315,LAS ARBOLEDAS,21.901259391019813,-102.30467077710561,20020
622,Aguascalientes,Aguascalientes,CALLE TABACHÍN,317,LAS ARBOLEDAS,21.901330120293704,-102.30469273090033,20020
623,Aguascalientes,Aguascalientes,CALLE TABACHÍN,SN,LAS ARBOLEDAS,21.90139690694289,-102.30471346095786,20020
624,Aguascalientes,Aguascalientes,CALLE TABACHÍN,SN,LAS ARBOLEDAS,21.901468297737818,-102.30473562012978,20020
625,Aguascalientes,Aguascalientes,CALLE TABACHÍN,SN,LAS ARBOLEDAS,21.90151732932102,-102.30475083918253,20020
626,Aguascalientes,Aguascalientes,CALLE TABACHÍN,325,LAS ARBOLEDAS,21.901592001213526,-102.30477401682572,20020
627,Aguascalientes,Aguascalientes,CALLE TABACHÍN,327,LAS ARBOLEDAS,21.901643996391986,-102.30479015578797,20020
628,Aguascalientes,Aguascalientes,CALLE TABACHÍN,SN,LAS ARBOLEDAS,21.901714725658984,-102.30481210970883,20020
629,Aguascalientes,Aguascalientes,CALLE TABACHÍN,331,LAS ARBOLEDAS,21.90180257498155,-102.30483937762045,20020
630,Aguascalientes,Aguascalientes,CALLE TABACHÍN,333,LAS ARBOLEDAS,21.901885476135163,-102.30486510968296,20020
631,Aguascalientes,Aguascalientes,CALLE TABACHÍN,335,LAS ARBOLEDAS,21.901965413690416,-102.30488992189156,20020
632,Aguascalientes,Aguascalientes,CALLE TABACHÍN,337,LAS ARBOLEDAS,21.902060539765174,-102.30491944857825,20020
633,Aguascalientes,Aguascalientes,CALLE TABACHÍN,339,LAS ARBOLEDAS,21.902143414395532,-102.30494517250894,20020
634,Aguascalientes,Aguascalientes,CALLE TABACHÍN,341,LAS ARBOLEDAS,21.90224542016712,-102.30497683470848,20020
635,Aguascalientes,Aguascalientes,CALLE TABACHÍN,343A,LAS ARBOLEDAS,21.90231517039717,-102.30499848494014,20020
636,Aguascalientes,Aguascalientes,CALLE TABACHÍN,343,LAS ARBOLEDAS,21.902383280076485,-102.30501962597262,20020
637,Aguascalientes,Aguascalientes,CALLE TABACHÍN,347,LAS ARBOLEDAS,21.902487587914727,-102.3050520028434,20020
638,Aguascalientes,Aguascalientes,CALLE TABACHÍN,349,LAS ARBOLEDAS,21.90257146808002,-102.30507803905701,20020
639,Aguascalientes,Aguascalientes,CALLE TABACHÍN,351A,LAS ARBOLEDAS,21.902645504947056,-102.30510101996067,20020
640,Aguascalientes,Aguascalientes,CALLE ACACIA,535,LAS ARBOLEDAS,21.90275519580806,-102.30269829893024,20020
641,Aguascalientes,Aguascalientes,AVENIDA CANAL INTERCEPTOR,1924,CIRCUNVALACIÓN NORTE,21.902854474388814,-102.30242234171826,20020
642,Aguascalientes,Aguascalientes,CALLE LIBERTAD,1828,CIRCUNVALACIÓN NORTE,21.902811687767972,-102.30214181148429,20020
643,Aguascalientes,Aguascalientes,CALLE LIBERTAD,1826,CIRCUNVALACIÓN NORTE,21.902718047974123,-102.30211077203326,20020
644,Aguascalientes,Aguascalientes,CALLE LIBERTAD,1824,CIRCUNVALACIÓN NORTE,21.902627807943592,-102.30208085956808,20020
645,Aguascalientes,Aguascalientes,CALLE LIBERTAD,1824A,CIRCUNVALACIÓN NORTE,21.90255049924598,-102.30205523357094,20020
646,Aguascalientes,Aguascalientes,CALLE LIBERTAD,SN,CIRCUNVALACIÓN NORTE,21.90247672997046,-102.30203078083639,20020
647,Aguascalientes,Aguascalientes,CALLE LIBERTAD,1820,CIRCUNVALACIÓN NORTE,21.90240364370223,-102.30200655452946,20020
648,Aguascalientes,Aguascalientes,CALLE LIBERTAD,1818,CIRCUNVALACIÓN NORTE,21.902335587253358,-102.30198399550872,20020
649,Aguascalientes,Aguascalientes,CALLE LIBERTAD,SN,CIRCUNVALACIÓN NORTE,21.902250656347668,-102.30195584305801,20020
650,Aguascalientes,Aguascalientes,CALLE LIBERTAD,1814,CIRCUNVALACIÓN NORTE,21.902141089125482,-102.30191952434444,20020
651,Aguascalientes,Aguascalientes,CALLE LIBERTAD,1812,CIRCUNVALACIÓN NORTE,21.902058067584157,-102.30189200488121,20020
652,Aguascalientes,Aguascalientes,CALLE LIBERTAD,1810,CIRCUNVALACIÓN NORTE,21.901994916570423,-102.30187107200005,20020
653,Aguascalientes,Aguascalientes,CALLE LIBERTAD,1808,CIRCUNVALACIÓN NORTE,21.9019275431213,-102.30184873951615,20020
654,Aguascalientes,Aguascalientes,CALLE LIBERTAD,1806,CIRCUNVALACIÓN NORTE,21.901867108862728,-102.3018287072066,20020
655,Aguascalientes,Aguascalientes,CALLE LIBERTAD,1804,CIRCUNVALACIÓN NORTE,21.901726649125532,-102.3017821487035,20020
656,Aguascalientes,Aguascalientes,CALLE LIBERTAD,SN,CIRCUNVALACIÓN NORTE,21.90156332277531,-102.30172801067874,20020
657,Aguascalientes,Aguascalientes,CALLE ABEDUL,503,CIRCUNVALACIÓN NORTE,21.901408913105993,-102.3018676950782,20020
658,Aguascalientes,Aguascalientes,CALLE ABEDUL,505,LAS ARBOLEDAS,21.90136521322562,-102.30201970335138,20020
659,Aguascalientes,Aguascalientes,CALLE ABEDUL,507,LAS ARBOLEDAS,21.901334671033272,-102.30212990617261,20020
660,Aguascalientes,Aguascalientes,CALLE ACACIA,501A,LAS ARBOLEDAS,21.9013464277728,-102.30226326291218,20020
661,Aguascalientes,Aguascalientes,CALLE ACACIA,501,LAS ARBOLEDAS,21.901591963445213,-102.30233908513048,20020
662,Aguascalientes,Aguascalientes,CALLE ACACIA,503,LAS ARBOLEDAS,21.90165104752208,-102.30235733052878,20020
663,Aguascalientes,Aguascalientes,CALLE ACACIA,SN,LAS ARBOLEDAS,21.901706548735593,-102.30237446953952,20020
664,Aguascalientes,Aguascalientes,CALLE ACACIA,509,LAS ARBOLEDAS,21.9017633283988,-102.3023920033559,20020
665,Aguascalientes,Aguascalientes,CALLE ACACIA,509A,LAS ARBOLEDAS,21.90179274190508,-102.30240108638542,20020
666,Aguascalientes,Aguascalientes,CALLE ACACIA,511,LAS ARBOLEDAS,21.901860777418463,-102.30242209608846,20020
667,Aguascalientes,Aguascalientes,CALLE ACACIA,513,LAS ARBOLEDAS,21.901947994259604,-102.30244902911217,20020
668,Aguascalientes,Aguascalientes,CALLE ACACIA,515,LAS ARBOLEDAS,21.90201014478289,-102.30246822154558,20020
669,Aguascalientes,Aguascalientes,CALLE ACACIA,517,LAS ARBOLEDAS,21.90210759379658,-102.30249831438913,20020
670,Aguascalientes,Aguascalientes,CALLE ACACIA,519,LAS ARBOLEDAS,21.902171279829744,-102.30251798104459,20020
671,Aguascalientes,Aguascalientes,CALLE ACACIA,521,LAS ARBOLEDAS,21.902228826099314,-102.30253575171803,20020
672,Aguascalientes,Aguascalientes,CALLE ACACIA,SN,LAS ARBOLEDAS,21.902304789369,-102.30255920970825,20020
673,Aguascalientes,Aguascalientes,CALLE ACACIA,525,LAS ARBOLEDAS,21.90237435809946,-102.30258069304367,20020
674,Aguascalientes,Aguascalientes,CALLE ACACIA,527,LAS ARBOLEDAS,21.902437789352987,-102.30260028110087,20020
675,Aguascalientes,Aguascalientes,CALLE ACACIA,531,LAS ARBOLEDAS,21.90251861164412,-102.30262523967113,20020
676,Aguascalientes,Aguascalientes,CALLE ACACIA,533,LAS ARBOLEDAS,21.902637544096184,-102.30266196701974,20020
677,Aguascalientes,Aguascalientes,CALLE ABEDUL,508,LAS ARBOLEDAS,21.901268324383533,-102.30216898928809,20020
678,Aguascalientes,Aguascalientes,CALLE ABEDUL,506,LAS ARBOLEDAS,21.901315453487165,-102.30199899237458,20020
679,Aguascalientes,Aguascalientes,CALLE ABEDUL,504,CIRCUNVALACIÓN NORTE,21.901348281228756,-102.30188058068282,20020
680,Aguascalientes,Aguascalientes,CALLE LIBERTAD,1730,CIRCUNVALACIÓN NORTE,21.901350025703792,-102.30163951111899,20020
681,Aguascalientes,Aguascalientes,CALLE LIBERTAD,1726,CIRCUNVALACIÓN NORTE,21.901235015137747,-102.30160501631838,20020
682,Aguascalientes,Aguascalientes,CALLE LIBERTAD,1724,CIRCUNVALACIÓN NORTE,21.901152329502885,-102.30158021668201,20020
683,Aguascalientes,Aguascalientes,CALLE LIBERTAD,1722,CIRCUNVALACIÓN NORTE,21.90104060261123,-102.30154670684432,20020
684,Aguascalientes,Aguascalientes,CALLE LIBERTAD,1720,LAS ARBOLEDAS,21.900949163957105,-102.30151928202568,20020
685,Aguascalientes,Aguascalientes,CALLE LIBERTAD,1718,LAS ARBOLEDAS,21.900897167617142,-102.30150368699469,20020
686,Aguascalientes,Aguascalientes,CALLE LIBERTAD,1716,LAS ARBOLEDAS,21.900823052325748,-102.30148145794622,20020
687,Aguascalientes,Aguascalientes,CALLE LIBERTAD,1714,LAS ARBOLEDAS,21.90075016080621,-102.30145959596221,20020
688,Aguascalientes,Aguascalientes,CALLE LIBERTAD,1712,LAS ARBOLEDAS,21.900676615818877,-102.3014375380114,20020
689,Aguascalientes,Aguascalientes,CALLE LIBERTAD,1710A,LAS ARBOLEDAS,21.90061000948278,-102.30141756115398,20020
690,Aguascalientes,Aguascalientes,CALLE LIBERTAD,1710,LAS ARBOLEDAS,21.900562666627486,-102.30140336189444,20020
691,Aguascalientes,Aguascalientes,CALLE LIBERTAD,1708A,CIRCUNVALACIÓN NORTE,21.900504222715384,-102.30138583317535,20020
692,Aguascalientes,Aguascalientes,CALLE LIBERTAD,1708,CIRCUNVALACIÓN NORTE,21.900457695707733,-102.3013718786304,20020
693,Aguascalientes,Aguascalientes,CALLE LIBERTAD,SN,CIRCUNVALACIÓN NORTE,21.90039843594563,-102.30135410524687,20020
694,Aguascalientes,Aguascalientes,CALLE LIBERTAD,1704,CIRCUNVALACIÓN NORTE,21.900337461325027,-102.30133581755398,20020
695,Aguascalientes,Aguascalientes,CALLE MARGIL DE JESÚS,1401,CIRCUNVALACIÓN NORTE,21.900177110426277,-102.301348386749,20020
696,Aguascalientes,Aguascalientes,CALLE MARGIL DE JESÚS,1403,CIRCUNVALACIÓN NORTE,21.900152361026706,-102.30143562538888,20020
697,Aguascalientes,Aguascalientes,CALLE MARGIL DE JESÚS,1405,LAS ARBOLEDAS,21.90006042949883,-102.30180585783485,20020
698,Aguascalientes,Aguascalientes,CALLE ACACIA,405,LAS ARBOLEDAS,21.90046155728557,-102.30197850688633,20020
699,Aguascalientes,Aguascalientes,CALLE ACACIA,407,LAS ARBOLEDAS,21.90052831351238,-102.30200132002061,20020
700,Aguascalientes,Aguascalientes,CALLE ACACIA,409,LAS ARBOLEDAS,21.900594803297814,-102.30202343709013,20020
701,Aguascalientes,Aguascalientes,CALLE ACACIA,411,LAS ARBOLEDAS,21.900675300342986,-102.30205021354506,20020
702,Aguascalientes,Aguascalientes,CALLE ACACIA,413A,LAS ARBOLEDAS,21.90075902387187,-102.3020780632892,20020
703,Aguascalientes,Aguascalientes,CALLE ACACIA,417,LAS ARBOLEDAS,21.900828958807764,-102.30210132643143,20020
704,Aguascalientes,Aguascalientes,CALLE ACACIA,419,LAS ARBOLEDAS,21.900910127791043,-102.30212832649597,20020
705,Aguascalientes,Aguascalientes,CALLE ACACIA,421,LAS ARBOLEDAS,21.90099351534084,-102.30215606457975,20020
706,Aguascalientes,Aguascalientes,CALLE ACACIA,423,LAS ARBOLEDAS,21.901140174142984,-102.30220484933605,20020
707,Aguascalientes,Aguascalientes,CALLE MARGIL DE JESÚS,1501,LAS ARBOLEDAS,21.899835655180713,-102.30266266922582,20020
708,Aguascalientes,Aguascalientes,CALLE MARGIL DE JESÚS,1402,CIRCUNVALACIÓN NORTE,21.90009379017575,-102.30129341525567,20020
709,Aguascalientes,Aguascalientes,CALLE LIBERTAD,1608,CIRCUNVALACIÓN NORTE,21.899495335855825,-102.30106004528858,20020
710,Aguascalientes,Aguascalientes,AVENIDA CONVENCIÓN 1914 NORTE,SN,CIRCUNVALACIÓN NORTE,21.89851420838901,-102.3008124467263,20020
711,Aguascalientes,Aguascalientes,AVENIDA CONVENCIÓN 1914 NORTE,1201A,CIRCUNVALACIÓN NORTE,21.89846952895705,-102.30097153286609,20020
712,Aguascalientes,Aguascalientes,AVENIDA CONVENCIÓN 1914 NORTE,1203,CIRCUNVALACIÓN NORTE,21.898421997230443,-102.3011407741642,20020
713,Aguascalientes,Aguascalientes,AVENIDA CONVENCIÓN 1914 NORTE,1205,CIRCUNVALACIÓN NORTE,21.898386323439368,-102.30126779362587,20020
714,Aguascalientes,Aguascalientes,CALLE ACACIA,SN,CIRCUNVALACIÓN NORTE,21.898581365687594,-102.30139035053976,20020
715,Aguascalientes,Aguascalientes,CALLE ACACIA,329,CIRCUNVALACIÓN NORTE,21.899802017622292,-102.30176619953606,20020
716,Aguascalientes,Aguascalientes,CALLE TABACHÍN,SN,LAS ARBOLEDAS,21.9026833216234,-102.30519884192456,20020
717,Aguascalientes,Aguascalientes,CALLE TABACHÍN,350,LAS ARBOLEDAS,21.902586195948388,-102.3051681586885,20020
718,Aguascalientes,Aguascalientes,CALLE TABACHÍN,348,LAS ARBOLEDAS,21.902497806697063,-102.30514023543923,20020
719,Aguascalientes,Aguascalientes,CALLE TABACHÍN,346,LAS ARBOLEDAS,21.902423667871723,-102.3051168141034,20020
720,Aguascalientes,Aguascalientes,CALLE TABACHÍN,344A,LAS ARBOLEDAS,21.90236022130904,-102.30509677060137,20020
721,Aguascalientes,Aguascalientes,CALLE TABACHÍN,344,LAS ARBOLEDAS,21.902270854133413,-102.30506853851111,20020
722,Aguascalientes,Aguascalientes,CALLE TABACHÍN,338,LAS ARBOLEDAS,21.902170394109184,-102.30503680211177,20020
723,Aguascalientes,Aguascalientes,CALLE TABACHÍN,SN,LAS ARBOLEDAS,21.902073557088976,-102.30500621030419,20020
724,Aguascalientes,Aguascalientes,CALLE TABACHÍN,304,LAS ARBOLEDAS,21.901634479662867,-102.30486750180897,20020
725,Aguascalientes,Aguascalientes,CALLE ABEDUL,SN,LAS ARBOLEDAS,21.9006209440482,-102.304748699503,20020
726,Aguascalientes,Aguascalientes,CALLE PIRACANTO,SN,LAS ARBOLEDAS,21.90200237616073,-102.30537460298692,20020
727,Aguascalientes,Aguascalientes,CALLE PIRACANTO,441,LAS ARBOLEDAS,21.90210794462061,-102.30540797441078,20020
728,Aguascalientes,Aguascalientes,CALLE PIRACANTO,443,LAS ARBOLEDAS,21.902208111097774,-102.30543963825437,20020
729,Aguascalientes,Aguascalientes,CALLE PIRACANTO,SN,LAS ARBOLEDAS,21.90230689833876,-102.30547086615185,20020
730,Aguascalientes,Aguascalientes,CALLE PIRACANTO,453,LAS ARBOLEDAS,21.902389192308057,-102.3054968803532,20020
731,Aguascalientes,Aguascalientes,CALLE PIRACANTO,453A,LAS ARBOLEDAS,21.90245085530656,-102.30551637285589,20020
732,Aguascalientes,Aguascalientes,CALLE PIRACANTO,455,LAS ARBOLEDAS,21.902553377955467,-102.30554878168377,20020
733,Aguascalientes,Aguascalientes,CALLE TABACHÍN,224,LAS ARBOLEDAS,21.900469827367157,-102.30449579612392,20020
734,Aguascalientes,Aguascalientes,CALLE TABACHÍN,222,LAS ARBOLEDAS,21.90038400385717,-102.30447029596021,20020
735,Aguascalientes,Aguascalientes,CALLE TABACHÍN,220,LAS ARBOLEDAS,21.900309253023142,-102.30444808577343,20020
736,Aguascalientes,Aguascalientes,CALLE TABACHÍN,218,LAS ARBOLEDAS,21.90022970533833,-102.3044244503599,20020
737,Aguascalientes,Aguascalientes,CALLE TABACHÍN,216,LAS ARBOLEDAS,21.90015667342362,-102.30440275095388,20020
738,Aguascalientes,Aguascalientes,CALLE TABACHÍN,214,LAS ARBOLEDAS,21.900088917956165,-102.30438261931914,20020
739,Aguascalientes,Aguascalientes,CALLE TABACHÍN,212,LAS ARBOLEDAS,21.900022601571603,-102.30436291528747,20020
740,Aguascalientes,Aguascalientes,CALLE TABACHÍN,210,LAS ARBOLEDAS,21.899933140449942,-102.30433633448537,20020
741,Aguascalientes,Aguascalientes,CALLE TABACHÍN,208,LAS ARBOLEDAS,21.899870021963327,-102.3043175806621,20020
742,Aguascalientes,Aguascalientes,CALLE TABACHÍN,206,LAS ARBOLEDAS,21.899799908105578,-102.30429674838871,20020
743,Aguascalientes,Aguascalientes,CALLE TABACHÍN,204,LAS ARBOLEDAS,21.899745663775693,-102.30428063129457,20020
744,Aguascalientes,Aguascalientes,CALLE TABACHÍN,202,LAS ARBOLEDAS,21.899657241923347,-102.30425435939145,20020
745,Aguascalientes,Aguascalientes,CALLE MARGIL DE JESÚS,SN,LAS ARBOLEDAS,21.89939779966029,-102.30425425669456,20020
746,Aguascalientes,Aguascalientes,CALLE PIRACANTO,624,LAS ARBOLEDAS,21.899544568807592,-102.30459466669726,20020
747,Aguascalientes,Aguascalientes,CALLE PIRACANTO,305,LAS ARBOLEDAS,21.899647130076776,-102.30462844237363,20020
748,Aguascalientes,Aguascalientes,CALLE PIRACANTO,620,LAS ARBOLEDAS,21.89972779766275,-102.30465500801691,20020
749,Aguascalientes,Aguascalientes,CALLE PIRACANTO,618,LAS ARBOLEDAS,21.89980518477569,-102.30468049335767,20020
750,Aguascalientes,Aguascalientes,CALLE PIRACANTO,616,LAS ARBOLEDAS,21.89989118610674,-102.3047088155922,20020
751,Aguascalientes,Aguascalientes,CALLE PIRACANTO,614,LAS ARBOLEDAS,21.89995249318058,-102.30472900545738,20020
752,Aguascalientes,Aguascalientes,CALLE PIRACANTO,SN,LAS ARBOLEDAS,21.90000764041826,-102.30474716675937,20020
753,Aguascalientes,Aguascalientes,CALLE PIRACANTO,608,LAS ARBOLEDAS,21.900080920967458,-102.30477129981746,20020
754,Aguascalientes,Aguascalientes,CALLE PIRACANTO,606,LAS ARBOLEDAS,21.900166576098876,-102.30479950815916,20020
755,Aguascalientes,Aguascalientes,CALLE PIRACANTO,SN,LAS ARBOLEDAS,21.900244576796695,-102.3048251957397,20020
756,Aguascalientes,Aguascalientes,CALLE PIRACANTO,602,LAS ARBOLEDAS,21.90035679083623,-102.30486215068301,20020
757,Aguascalientes,Aguascalientes,CALLE ABEDUL,905,LAS ARBOLEDAS,21.90054091249581,-102.30487663128687,20020
758,Aguascalientes,Aguascalientes,CALLE ABEDUL,903,LAS ARBOLEDAS,21.90056400883281,-102.30478598524736,20020
759,Aguascalientes,Aguascalientes,CALLE ABEDUL,SN,LAS ARBOLEDAS,21.900590757394014,-102.3046809947426,20020
760,Aguascalientes,Aguascalientes,CALLE ABEDUL,SN,LAS ARBOLEDAS,21.900614898908845,-102.30458611697414,20020
761,Aguascalientes,Aguascalientes,CALLE MARGIL DE JESÚS,1903,LAS ARBOLEDAS,21.899271029816106,-102.30437908538606,20020
762,Aguascalientes,Aguascalientes,CALLE MARGIL DE JESÚS,SN,LAS ARBOLEDAS,21.899303435023416,-102.30425309932356,20020
763,Aguascalientes,Aguascalientes,CALLE TABACHÍN,130,LAS ARBOLEDAS,21.899120174484956,-102.30409589943396,20020
764,Aguascalientes,Aguascalientes,CALLE TABACHÍN,128,LAS ARBOLEDAS,21.899038915357437,-102.30406984441657,20020
765,Aguascalientes,Aguascalientes,CALLE TABACHÍN,126,LAS ARBOLEDAS,21.898960506889846,-102.30404470346853,20020
766,Aguascalientes,Aguascalientes,CALLE TABACHÍN,124,LAS ARBOLEDAS,21.898848715558817,-102.30400885866689,20020
767,Aguascalientes,Aguascalientes,CALLE TABACHÍN,122,LAS ARBOLEDAS,21.898722430814104,-102.3039683667667,20020
768,Aguascalientes,Aguascalientes,CALLE TABACHÍN,120,LAS ARBOLEDAS,21.89860844145374,-102.30393181732153,20020
769,Aguascalientes,Aguascalientes,CALLE TABACHÍN,116,LAS ARBOLEDAS,21.898510730980977,-102.30390048757464,20020
770,Aguascalientes,Aguascalientes,CALLE TABACHÍN,110,LAS ARBOLEDAS,21.89817470429177,-102.30379274481143,20020
771,Aguascalientes,Aguascalientes,CALLE TABACHÍN,108,LAS ARBOLEDAS,21.89809938656646,-102.30376859519869,20020
772,Aguascalientes,Aguascalientes,AVENIDA CONVENCIÓN 1914 NORTE,SN,VILLAS DE LA UNIVERSIDAD,21.89759271846388,-102.30409399505587,20029
773,Aguascalientes,Aguascalientes,PRIVADA PIRACANTO,700,LAS ARBOLEDAS,21.899162882332096,-102.30449862092436,20029
774,Aguascalientes,Aguascalientes,PRIVADA PIRACANTO,700A,LAS ARBOLEDAS,21.899070431953636,-102.30446968853867,20029
775,Aguascalientes,Aguascalientes,PRIVADA PIRACANTO,702,LAS ARBOLEDAS,21.89897129947488,-102.30443866503202,20029
776,Aguascalientes,Aguascalientes,PRIVADA PIRACANTO,704,LAS ARBOLEDAS,21.898916072519917,-102.30442138177818,20029
777,Aguascalientes,Aguascalientes,PRIVADA PIRACANTO,706,LAS ARBOLEDAS,21.89883244847335,-102.30439521169332,20029
778,Aguascalientes,Aguascalientes,PRIVADA PIRACANTO,708,LAS ARBOLEDAS,21.898739998086857,-102.30436627945048,20029
779,Aguascalientes,Aguascalientes,PRIVADA PIRACANTO,712,LAS ARBOLEDAS,21.898576523794155,-102.30431512045689,20020
780,Aguascalientes,Aguascalientes,CALLE LICENCIADO GUILLERMO H. MIRAMONTES,105B,VILLAS DE LA UNIVERSIDAD,21.898596286135795,-102.30497980406614,20029
781,Aguascalientes,Aguascalientes,CALLE LICENCIADO GUILLERMO H. MIRAMONTES,101,VILLAS DE LA UNIVERSIDAD,21.89863490919041,-102.30484271215198,20029
782,Aguascalientes,Aguascalientes,AVENIDA UNIVERSIDAD,103,VILLAS DE LA UNIVERSIDAD,21.89801800202653,-102.30490789187535,20029
783,Aguascalientes,Aguascalientes,AVENIDA UNIVERSIDAD,105,VILLAS DE LA UNIVERSIDAD,21.898451325256076,-102.30511342680236,20029
784,Aguascalientes,Aguascalientes,CALLE MARGIL DE JESÚS,1811A,VILLAS DE LA UNIVERSIDAD,21.89902888999313,-102.30523996478013,20029
785,Aguascalientes,Aguascalientes,CALLE MARGIL DE JESÚS,2011,VILLAS DE LA UNIVERSIDAD,21.899108795408132,-102.30495275254927,20029
786,Aguascalientes,Aguascalientes,CALLE MARGIL DE JESÚS,2009,VILLAS DE LA UNIVERSIDAD,21.899129766709905,-102.30487737287284,20029
787,Aguascalientes,Aguascalientes,CALLE MARGIL DE JESÚS,2007,VILLAS DE LA UNIVERSIDAD,21.899154413816923,-102.30478878060745,20029
788,Aguascalientes,Aguascalientes,CALLE MARGIL DE JESÚS,2005,VILLAS DE LA UNIVERSIDAD,21.899180345486013,-102.30469557084294,20029
789,Aguascalientes,Aguascalientes,CALLE MARGIL DE JESÚS,2003,VILLAS DE LA UNIVERSIDAD,21.899202125571527,-102.30461728350197,20029
790,Aguascalientes,Aguascalientes,CALLE LICENCIADO GUILLERMO H. MIRAMONTES,112,VILLAS DE LA UNIVERSIDAD,21.898796669256186,-102.30448557544365,20029
791,Aguascalientes,Aguascalientes,CALLE LICENCIADO GUILLERMO H. MIRAMONTES,110,VILLAS DE LA UNIVERSIDAD,21.89877495187977,-102.3045684201894,20029
792,Aguascalientes,Aguascalientes,CALLE LICENCIADO GUILLERMO H. MIRAMONTES,108A,VILLAS DE LA UNIVERSIDAD,21.89874937377027,-102.30466599212718,20029
793,Aguascalientes,Aguascalientes,CALLE LICENCIADO GUILLERMO H. MIRAMONTES,108,VILLAS DE LA UNIVERSIDAD,21.898728566033586,-102.30474536648623,20029
794,Aguascalientes,Aguascalientes,CALLE LICENCIADO GUILLERMO H. MIRAMONTES,106,VILLAS DE LA UNIVERSIDAD,21.898707006118137,-102.30482760995821,20029
795,Aguascalientes,Aguascalientes,CALLE LICENCIADO GUILLERMO H. MIRAMONTES,SN,VILLAS DE LA UNIVERSIDAD,21.898685892273267,-102.30490814485435,20029
796,Aguascalientes,Aguascalientes,CALLE LICENCIADO GUILLERMO H. MIRAMONTES,1507A,VILLAS DE LA UNIVERSIDAD,21.898648154120483,-102.30505206822038,20029
797,Aguascalientes,Aguascalientes,AVENIDA UNIVERSIDAD,SN,VILLAS DE LA UNIVERSIDAD,21.89863358921044,-102.30519716132986,20029
798,Aguascalientes,Aguascalientes,AVENIDA UNIVERSIDAD,1509,VILLAS DE LA UNIVERSIDAD,21.898871620942252,-102.305325034831,20029
799,Aguascalientes,Aguascalientes,CALLE ABEDUL,SN,LAS ARBOLEDAS,21.900400978334826,-102.30530556847853,20029
800,Aguascalientes,Aguascalientes,AVENIDA CANAL INTERCEPTOR,SN,LAS ARBOLEDAS,21.902660727436746,-102.30599762050782,20020
801,Aguascalientes,Aguascalientes,AVENIDA CANAL INTERCEPTOR,SN,LAS ARBOLEDAS,21.902667826831703,-102.30588597858969,20020
802,Aguascalientes,Aguascalientes,AVENIDA CANAL INTERCEPTOR,309,LAS ARBOLEDAS,21.90267785559276,-102.30572826857426,20020
803,Aguascalientes,Aguascalientes,CALLE PIRACANTO,454,LAS ARBOLEDAS,21.902574451639985,-102.30562768825571,20020
804,Aguascalientes,Aguascalientes,CALLE PIRACANTO,452,LAS ARBOLEDAS,21.90247399186755,-102.305596218452,20020
805,Aguascalientes,Aguascalientes,CALLE PIRACANTO,450,LAS ARBOLEDAS,21.90239861173507,-102.3055726050718,20020
806,Aguascalientes,Aguascalientes,CALLE PIRACANTO,446,LAS ARBOLEDAS,21.90228644341757,-102.30553746757255,20020
807,Aguascalientes,Aguascalientes,CALLE PIRACANTO,446A,LAS ARBOLEDAS,21.90212163289457,-102.30548583964801,20020
808,Aguascalientes,Aguascalientes,CALLE PIRACANTO,444,LAS ARBOLEDAS,21.90197562663339,-102.30544010238387,20020
809,Aguascalientes,Aguascalientes,CALLE PIRACANTO,440,LAS ARBOLEDAS,21.90187411282517,-102.30540830268514,20020
810,Aguascalientes,Aguascalientes,CALLE PIRACANTO,438,LAS ARBOLEDAS,21.901784378158993,-102.30538019290132,20020
811,Aguascalientes,Aguascalientes,CALLE PIRACANTO,436,LAS ARBOLEDAS,21.90169063921942,-102.30535082880202,20020
812,Aguascalientes,Aguascalientes,CALLE PIRACANTO,434,LAS ARBOLEDAS,21.90162092590547,-102.30532899085358,20020
813,Aguascalientes,Aguascalientes,CALLE PIRACANTO,SN,LAS ARBOLEDAS,21.901566012589825,-102.3053117890746,20020
814,Aguascalientes,Aguascalientes,CALLE PIRACANTO,430,LAS ARBOLEDAS,21.90149501158492,-102.30528954779466,20020
815,Aguascalientes,Aguascalientes,CALLE PIRACANTO,428,LAS ARBOLEDAS,21.901427031433016,-102.30526825282858,20020
816,Aguascalientes,Aguascalientes,CALLE PIRACANTO,426,LAS ARBOLEDAS,21.901369401531674,-102.3052502001237,20020
817,Aguascalientes,Aguascalientes,CALLE PIRACANTO,424,LAS ARBOLEDAS,21.90130912564931,-102.3052313185758,20020
818,Aguascalientes,Aguascalientes,CALLE PIRACANTO,422,LAS ARBOLEDAS,21.90125685830934,-102.3052149457348,20020
819,Aguascalientes,Aguascalientes,CALLE PIRACANTO,420,LAS ARBOLEDAS,21.90121032840622,-102.30520037016747,20020
820,Aguascalientes,Aguascalientes,CALLE PIRACANTO,418,LAS ARBOLEDAS,21.90115103593854,-102.30518179672113,20020
821,Aguascalientes,Aguascalientes,CALLE PIRACANTO,416,LAS ARBOLEDAS,21.901102468596754,-102.30516658294756,20020
822,Aguascalientes,Aguascalientes,CALLE PIRACANTO,SN,LAS ARBOLEDAS,21.901056242963236,-102.30515210272713,20020
823,Aguascalientes,Aguascalientes,CALLE PIRACANTO,414,LAS ARBOLEDAS,21.90100404622254,-102.30513575206437,20020
824,Aguascalientes,Aguascalientes,CALLE PIRACANTO,410,LAS ARBOLEDAS,21.90096582913183,-102.3051237805442,20020
825,Aguascalientes,Aguascalientes,CALLE PIRACANTO,408,LAS ARBOLEDAS,21.900914920078744,-102.3051078332722,20020
826,Aguascalientes,Aguascalientes,CALLE PIRACANTO,406,LAS ARBOLEDAS,21.900849281625344,-102.30508727203052,20020
827,Aguascalientes,Aguascalientes,CALLE PIRACANTO,404,LAS ARBOLEDAS,21.900814460262183,-102.30507636424888,20020
828,Aguascalientes,Aguascalientes,CALLE PIRACANTO,402,LAS ARBOLEDAS,21.900749500952898,-102.30505601578004,20020
829,Aguascalientes,Aguascalientes,CALLE ABEDUL,1002,LAS ARBOLEDAS,21.90054211487388,-102.3050399326237,20020
830,Aguascalientes,Aguascalientes,CALLE ABEDUL,SN,LAS ARBOLEDAS,21.900513444138298,-102.30513373436548,20029
831,Aguascalientes,Aguascalientes,CALLE ABEDUL,1006B,LAS ARBOLEDAS,21.900488835108373,-102.30524667414993,20029
832,Aguascalientes,Aguascalientes,CALLE ABEDUL,SN,LAS ARBOLEDAS,21.900486532766983,-102.30532574380614,20029
833,Aguascalientes,Aguascalientes,CALLE INGENIERO AGUSTÍN YÁÑEZ,101,LAS ARBOLEDAS,21.90063915687006,-102.3054315235196,20020
834,Aguascalientes,Aguascalientes,CALLE INGENIERO AGUSTÍN YÁÑEZ,103,LAS ARBOLEDAS,21.900714020708545,-102.30545416212082,20020
835,Aguascalientes,Aguascalientes,CALLE INGENIERO AGUSTÍN YÁÑEZ,SN,LAS ARBOLEDAS,21.900767414419654,-102.30547030823534,20020
836,Aguascalientes,Aguascalientes,CALLE INGENIERO AGUSTÍN YÁÑEZ,107,LAS ARBOLEDAS,21.90079933800415,-102.30547996184761,20020
837,Aguascalientes,Aguascalientes,CALLE INGENIERO AGUSTÍN YÁÑEZ,109,LAS ARBOLEDAS,21.90087250653109,-102.30550208784513,20020
838,Aguascalientes,Aguascalientes,CALLE INGENIERO AGUSTÍN YÁÑEZ,SN,LAS ARBOLEDAS,21.900946052423354,-102.30552432798181,20020
839,Aguascalientes,Aguascalientes,CALLE INGENIERO AGUSTÍN YÁÑEZ,115,LAS ARBOLEDAS,21.901008863251885,-102.30554332187548,20020
840,Aguascalientes,Aguascalientes,CALLE INGENIERO AGUSTÍN YÁÑEZ,117,LAS ARBOLEDAS,21.901060939017203,-102.30555906951697,20020
841,Aguascalientes,Aguascalientes,CALLE INGENIERO AGUSTÍN YÁÑEZ,SN,LAS ARBOLEDAS,21.9012217791075,-102.30560770742282,20020
842,Aguascalientes,Aguascalientes,CALLE INGENIERO AGUSTÍN YÁÑEZ,125,LAS ARBOLEDAS,21.901361149068816,-102.30564985287592,20020
843,Aguascalientes,Aguascalientes,CALLE INGENIERO AGUSTÍN YÁÑEZ,127,LAS ARBOLEDAS,21.90142970478882,-102.30567058414694,20020
844,Aguascalientes,Aguascalientes,CALLE INGENIERO AGUSTÍN YÁÑEZ,129,LAS ARBOLEDAS,21.901511631453594,-102.30569535882404,20020
845,Aguascalientes,Aguascalientes,CALLE INGENIERO AGUSTÍN YÁÑEZ,131,LAS ARBOLEDAS,21.901604293178004,-102.30572337982733,20020
846,Aguascalientes,Aguascalientes,CALLE INGENIERO AGUSTÍN YÁÑEZ,SN,LAS ARBOLEDAS,21.901842351348478,-102.30579536904992,20020
847,Aguascalientes,Aguascalientes,CALLE INGENIERO AGUSTÍN YÁÑEZ,141,LAS ARBOLEDAS,21.901934354095058,-102.30582319091701,20020
848,Aguascalientes,Aguascalientes,CALLE INGENIERO AGUSTÍN YÁÑEZ,143,LAS ARBOLEDAS,21.902045191075842,-102.30585670835647,20020
849,Aguascalientes,Aguascalientes,CALLE INGENIERO AGUSTÍN YÁÑEZ,SN,LAS ARBOLEDAS,21.90212043225747,-102.30587946155033,20020
850,Aguascalientes,Aguascalientes,CALLE INGENIERO AGUSTÍN YÁÑEZ,147,LAS ARBOLEDAS,21.902198027717287,-102.30590292671324,20020
851,Aguascalientes,Aguascalientes,CALLE INGENIERO AGUSTÍN YÁÑEZ,149,LAS ARBOLEDAS,21.90231357325033,-102.30593786817417,20020
852,Aguascalientes,Aguascalientes,CALLE INGENIERO AGUSTÍN YÁÑEZ,151,LAS ARBOLEDAS,21.902399172120333,-102.30596375367624,20020
853,Aguascalientes,Aguascalientes,CALLE ABEDUL,140A,VILLAS DE LA UNIVERSIDAD,21.900402895576953,-102.30583984558727,20029
854,Aguascalientes,Aguascalientes,CALLE ABEDUL,140,VILLAS DE LA UNIVERSIDAD,21.900422413776862,-102.3057430768919,20029
855,Aguascalientes,Aguascalientes,CALLE ANTONIO CASO,138,VILLAS DE LA UNIVERSIDAD,21.90032853461157,-102.30565832021817,20029
856,Aguascalientes,Aguascalientes,CALLE ANTONIO CASO,SN,VILLAS DE LA UNIVERSIDAD,21.900209500958244,-102.30559303564587,20029
857,Aguascalientes,Aguascalientes,CALLE ANTONIO CASO,130,VILLAS DE LA UNIVERSIDAD,21.900085191594286,-102.30552485772209,20029
858,Aguascalientes,Aguascalientes,CALLE ANTONIO CASO,128,VILLAS DE LA UNIVERSIDAD,21.900032600602948,-102.30549601404334,20029
859,Aguascalientes,Aguascalientes,CALLE ANTONIO CASO,126,VILLAS DE LA UNIVERSIDAD,21.899957509199456,-102.30545482999304,20029
860,Aguascalientes,Aguascalientes,CALLE ANTONIO CASO,SN,VILLAS DE LA UNIVERSIDAD,21.899768683964744,-102.3053512685913,20029
861,Aguascalientes,Aguascalientes,CALLE ANTONIO CASO,118,VILLAS DE LA UNIVERSIDAD,21.899658949283207,-102.3052910846364,20029
862,Aguascalientes,Aguascalientes,CALLE ANTONIO CASO,116,VILLAS DE LA UNIVERSIDAD,21.89959773378,-102.3052575110585,20029
863,Aguascalientes,Aguascalientes,CALLE ANTONIO CASO,114,VILLAS DE LA UNIVERSIDAD,21.899551214163566,-102.30523199744684,20029
864,Aguascalientes,Aguascalientes,CALLE ANTONIO CASO,112,VILLAS DE LA UNIVERSIDAD,21.899496744667726,-102.30520212376103,20029
865,Aguascalientes,Aguascalientes,CALLE ANTONIO CASO,110,VILLAS DE LA UNIVERSIDAD,21.89943355379169,-102.30516746688548,20029
866,Aguascalientes,Aguascalientes,CALLE ANTONIO CASO,108,VILLAS DE LA UNIVERSIDAD,21.899381637347975,-102.30513899347078,20029
867,Aguascalientes,Aguascalientes,CALLE ANTONIO CASO,SN,VILLAS DE LA UNIVERSIDAD,21.899293247621177,-102.30509051645176,20029
868,Aguascalientes,Aguascalientes,CALLE ANTONIO CASO,102,VILLAS DE LA UNIVERSIDAD,21.899226732162916,-102.30505403634119,20029
869,Aguascalientes,Aguascalientes,AVENIDA UNIVERSIDAD,SN,VILLAS DE LA UNIVERSIDAD,21.899175470437136,-102.30548944759471,20029
870,Aguascalientes,Aguascalientes,AVENIDA UNIVERSIDAD,203,VILLAS DE LA UNIVERSIDAD,21.89928525375217,-102.30554946770523,20029
871,Aguascalientes,Aguascalientes,AVENIDA UNIVERSIDAD,SN,VILLAS DE LA UNIVERSIDAD,21.899337155306277,-102.30557784306603,20029
872,Aguascalientes,Aguascalientes,AVENIDA UNIVERSIDAD,205,VILLAS DE LA UNIVERSIDAD,21.899446285221035,-102.30563750611223,20029
873,Aguascalientes,Aguascalientes,AVENIDA UNIVERSIDAD,SN,VILLAS DE LA UNIVERSIDAD,21.899651911275082,-102.30574992541243,20029
874,Aguascalientes,Aguascalientes,AVENIDA UNIVERSIDAD,213,VILLAS DE LA UNIVERSIDAD,21.899883418129,-102.30587649464786,20029
875,Aguascalientes,Aguascalientes,AVENIDA UNIVERSIDAD,217,VILLAS DE LA UNIVERSIDAD,21.900068430093995,-102.30597764458399,20029
876,Aguascalientes,Aguascalientes,AVENIDA UNIVERSIDAD,221,VILLAS DE LA UNIVERSIDAD,21.900190846963966,-102.30604457263382,20029
877,Aguascalientes,Aguascalientes,CALLE LICENCIADO SALVADOR AZUELA,105,VILLAS DE LA UNIVERSIDAD,21.90136508356803,-102.30601535180276,20029
878,Aguascalientes,Aguascalientes,CALLE LICENCIADO SALVADOR AZUELA,103,VILLAS DE LA UNIVERSIDAD,21.9014059555277,-102.3058950130808,20029
879,Aguascalientes,Aguascalientes,CALLE LICENCIADO SALVADOR AZUELA,101,VILLAS DE LA UNIVERSIDAD,21.90143750535429,-102.30580212114224,20029
880,Aguascalientes,Aguascalientes,CALLE INGENIERO AGUSTÍN YÁÑEZ,112,VILLAS DE LA UNIVERSIDAD,21.901297439859817,-102.30570480220699,20029
881,Aguascalientes,Aguascalientes,CALLE INGENIERO AGUSTÍN YÁÑEZ,110B,VILLAS DE LA UNIVERSIDAD,21.901217992888924,-102.30568067718636,20029
882,Aguascalientes,Aguascalientes,CALLE INGENIERO AGUSTÍN YÁÑEZ,110A,VILLAS DE LA UNIVERSIDAD,21.90116924724316,-102.30566587500381,20029
883,Aguascalientes,Aguascalientes,CALLE INGENIERO AGUSTÍN YÁÑEZ,108,VILLAS DE LA UNIVERSIDAD,21.901108493675558,-102.30564742649139,20029
884,Aguascalientes,Aguascalientes,CALLE INGENIERO AGUSTÍN YÁÑEZ,106,VILLAS DE LA UNIVERSIDAD,21.901022054382377,-102.30562117824529,20029
885,Aguascalientes,Aguascalientes,CALLE INGENIERO AGUSTÍN YÁÑEZ,SN,VILLAS DE LA UNIVERSIDAD,21.900861455130894,-102.30557241060013,20029
886,Aguascalientes,Aguascalientes,CALLE INGENIERO AGUSTÍN YÁÑEZ,102,VILLAS DE LA UNIVERSIDAD,21.90072190366504,-102.30553003443204,20029
887,Aguascalientes,Aguascalientes,CALLE ABEDUL,102,VILLAS DE LA UNIVERSIDAD,21.900490252319905,-102.30553984207357,20029
888,Aguascalientes,Aguascalientes,CALLE ANTONIO CASO,201,VILLAS DE LA UNIVERSIDAD,21.900676057338625,-102.30573351164016,20029
889,Aguascalientes,Aguascalientes,CALLE ANTONIO CASO,203,VILLAS DE LA UNIVERSIDAD,21.90079546332681,-102.30579835719435,20029
890,Aguascalientes,Aguascalientes,CALLE ANTONIO CASO,SN,VILLAS DE LA UNIVERSIDAD,21.900913472789213,-102.3058624444657,20029
891,Aguascalientes,Aguascalientes,CALLE ANTONIO CASO,SN,VILLAS DE LA UNIVERSIDAD,21.90100940245265,-102.30591454097636,20029
892,Aguascalientes,Aguascalientes,CALLE ANTONIO CASO,SN,VILLAS DE LA UNIVERSIDAD,21.90110199620075,-102.30596482593005,20029
893,Aguascalientes,Aguascalientes,CALLE ANTONIO CASO,209,VILLAS DE LA UNIVERSIDAD,21.901147140926188,-102.30598934273651,20029
894,Aguascalientes,Aguascalientes,AVENIDA CANAL INTERCEPTOR,201,VILLAS DE LA UNIVERSIDAD,21.902623005984857,-102.3064856731998,20029
895,Aguascalientes,Aguascalientes,AVENIDA CANAL INTERCEPTOR,205,VILLAS DE LA UNIVERSIDAD,21.90263128796476,-102.30637174247029,20029
896,Aguascalientes,Aguascalientes,AVENIDA CANAL INTERCEPTOR,SN,VILLAS DE LA UNIVERSIDAD,21.902641931831827,-102.30622531880749,20029
897,Aguascalientes,Aguascalientes,CALLE INGENIERO AGUSTÍN YÁÑEZ,134,VILLAS DE LA UNIVERSIDAD,21.902478366754533,-102.30608121539493,20029
898,Aguascalientes,Aguascalientes,CALLE INGENIERO AGUSTÍN YÁÑEZ,SN,VILLAS DE LA UNIVERSIDAD,21.902333952355733,-102.30603467592142,20029
899,Aguascalientes,Aguascalientes,CALLE INGENIERO AGUSTÍN YÁÑEZ,128,VILLAS DE LA UNIVERSIDAD,21.902212865051244,-102.30599565399534,20029
900,Aguascalientes,Aguascalientes,CALLE INGENIERO AGUSTÍN YÁÑEZ,124,VILLAS DE LA UNIVERSIDAD,21.902138453757956,-102.30597167404409,20029
901,Aguascalientes,Aguascalientes,CALLE INGENIERO AGUSTÍN YÁÑEZ,122,VILLAS DE LA UNIVERSIDAD,21.901960522420758,-102.30591433360021,20029
902,Aguascalientes,Aguascalientes,CALLE INGENIERO AGUSTÍN YÁÑEZ,120,VILLAS DE LA UNIVERSIDAD,21.901877194501694,-102.30588748026216,20029
903,Aguascalientes,Aguascalientes,CALLE INGENIERO AGUSTÍN YÁÑEZ,SN,VILLAS DE LA UNIVERSIDAD,21.90182914501666,-102.30587199580283,20029
904,Aguascalientes,Aguascalientes,CALLE INGENIERO AGUSTÍN YÁÑEZ,116,VILLAS DE LA UNIVERSIDAD,21.90176984183753,-102.30585288473613,20029
905,Aguascalientes,Aguascalientes,CALLE INGENIERO AGUSTÍN YÁÑEZ,SN,VILLAS DE LA UNIVERSIDAD,21.901686923772107,-102.3058261635555,20029
906,Aguascalientes,Aguascalientes,CALLE LICENCIADO SALVADOR AZUELA,102,VILLAS DE LA UNIVERSIDAD,21.901499790651965,-102.30580319823326,20029
907,Aguascalientes,Aguascalientes,CALLE LICENCIADO SALVADOR AZUELA,104,VILLAS DE LA UNIVERSIDAD,21.901469476821305,-102.30589437481487,20029
908,Aguascalientes,Aguascalientes,CALLE LICENCIADO SALVADOR AZUELA,106,VILLAS DE LA UNIVERSIDAD,21.90143907542215,-102.3059858145773,20029
909,Aguascalientes,Aguascalientes,CALLE LICENCIADO SALVADOR AZUELA,108,VILLAS DE LA UNIVERSIDAD,21.901413693616536,-102.30606215650843,20029
910,Aguascalientes,Aguascalientes,CALLE ANTONIO CASO,301A,VILLAS DE LA UNIVERSIDAD,21.901575871442986,-102.3061894835788,20029
911,Aguascalientes,Aguascalientes,CALLE ANTONIO CASO,SN,VILLAS DE LA UNIVERSIDAD,21.90167087505155,-102.30621961953447,20029
912,Aguascalientes,Aguascalientes,CALLE ANTONIO CASO,305,VILLAS DE LA UNIVERSIDAD,21.90174246956992,-102.30624232995571,20029
913,Aguascalientes,Aguascalientes,CALLE ANTONIO CASO,SN,VILLAS DE LA UNIVERSIDAD,21.90190947211703,-102.30629530475275,20029
914,Aguascalientes,Aguascalientes,CALLE ANTONIO CASO,315,VILLAS DE LA UNIVERSIDAD,21.902011928891117,-102.30632780508309,20029
915,Aguascalientes,Aguascalientes,CALLE ANTONIO CASO,317,VILLAS DE LA UNIVERSIDAD,21.90206829936196,-102.30634568639113,20029
916,Aguascalientes,Aguascalientes,CALLE ANTONIO CASO,SN,VILLAS DE LA UNIVERSIDAD,21.902133576996544,-102.30636639316462,20029
917,Aguascalientes,Aguascalientes,CALLE ANTONIO CASO,SN,VILLAS DE LA UNIVERSIDAD,21.90222347699818,-102.30639491045366,20029
918,Aguascalientes,Aguascalientes,CALLE ANTONIO CASO,SN,VILLAS DE LA UNIVERSIDAD,21.90230527868922,-102.30642085890162,20029
919,Aguascalientes,Aguascalientes,CALLE LICENCIADO SALVADOR AZUELA,201,VILLAS DE LA UNIVERSIDAD,21.901265119131892,-102.30629771742424,20029
920,Aguascalientes,Aguascalientes,CALLE ANTONIO CASO,222,VILLAS DE LA UNIVERSIDAD,21.901205352568844,-102.30612316584224,20029
921,Aguascalientes,Aguascalientes,CALLE ANTONIO CASO,200,VILLAS DE LA UNIVERSIDAD,21.901135860399204,-102.30608708340591,20029
922,Aguascalientes,Aguascalientes,CALLE ANTONIO CASO,218,VILLAS DE LA UNIVERSIDAD,21.901066016317138,-102.30605081828728,20029
923,Aguascalientes,Aguascalientes,CALLE ANTONIO CASO,216,VILLAS DE LA UNIVERSIDAD,21.90099756752563,-102.30601527768495,20029
924,Aguascalientes,Aguascalientes,CALLE ANTONIO CASO,214,VILLAS DE LA UNIVERSIDAD,21.900943223379183,-102.30598706065265,20029
925,Aguascalientes,Aguascalientes,CALLE ANTONIO CASO,212,VILLAS DE LA UNIVERSIDAD,21.900857766134774,-102.30594268886229,20029
926,Aguascalientes,Aguascalientes,CALLE ANTONIO CASO,210,VILLAS DE LA UNIVERSIDAD,21.900785684317942,-102.30590526201595,20029
927,Aguascalientes,Aguascalientes,CALLE ANTONIO CASO,208,VILLAS DE LA UNIVERSIDAD,21.900729253371885,-102.30587596155958,20029
928,Aguascalientes,Aguascalientes,CALLE ANTONIO CASO,206,VILLAS DE LA UNIVERSIDAD,21.90066404791775,-102.30584210517752,20029
929,Aguascalientes,Aguascalientes,CALLE ANTONIO CASO,202,VILLAS DE LA UNIVERSIDAD,21.900545893579515,-102.30578075643787,20029
930,Aguascalientes,Aguascalientes,AVENIDA UNIVERSIDAD,SN,VILLAS DE LA UNIVERSIDAD,21.900416607086843,-102.30616066301761,20029
931,Aguascalientes,Aguascalientes,AVENIDA UNIVERSIDAD,303,VILLAS DE LA UNIVERSIDAD,21.900710546948364,-102.3063195662625,20029
932,Aguascalientes,Aguascalientes,AVENIDA UNIVERSIDAD,305A,VILLAS DE LA UNIVERSIDAD,21.900818978927674,-102.3063781845471,20029
933,Aguascalientes,Aguascalientes,AVENIDA UNIVERSIDAD,305,VILLAS DE LA UNIVERSIDAD,21.900890404197526,-102.30641679707658,20029
934,Aguascalientes,Aguascalientes,AVENIDA UNIVERSIDAD,305B,VILLAS DE LA UNIVERSIDAD,21.900938719422623,-102.30644291633236,20029
935,Aguascalientes,Aguascalientes,AVENIDA UNIVERSIDAD,307,VILLAS DE LA UNIVERSIDAD,21.90107694642783,-102.30651764209517,20029
936,Aguascalientes,Aguascalientes,CALLE ANTONIO CASO,318,VILLAS DE LA UNIVERSIDAD,21.90225518158091,-102.3064928747218,20029
937,Aguascalientes,Aguascalientes,CALLE ANTONIO CASO,316,VILLAS DE LA UNIVERSIDAD,21.90215370118039,-102.3064596427444,20029
938,Aguascalientes,Aguascalientes,CALLE ANTONIO CASO,SN,VILLAS DE LA UNIVERSIDAD,21.90203423836194,-102.3064205220968,20029
939,Aguascalientes,Aguascalientes,CALLE ANTONIO CASO,312,VILLAS DE LA UNIVERSIDAD,21.901925801968083,-102.30638501234887,20029
940,Aguascalientes,Aguascalientes,CALLE ANTONIO CASO,SN,VILLAS DE LA UNIVERSIDAD,21.901810716413575,-102.30634732525958,20029
941,Aguascalientes,Aguascalientes,CALLE ANTONIO CASO,SN,VILLAS DE LA UNIVERSIDAD,21.901686820810422,-102.30630675321594,20029
942,Aguascalientes,Aguascalientes,CALLE ANTONIO CASO,306,VILLAS DE LA UNIVERSIDAD,21.901559315003006,-102.30626499902027,20029
943,Aguascalientes,Aguascalientes,CALLE LICENCIADO SALVADOR AZUELA,SN,VILLAS DE LA UNIVERSIDAD,21.90133569957861,-102.30629306783314,20029
944,Aguascalientes,Aguascalientes,AVENIDA UNIVERSIDAD,SN,VILLAS DE LA UNIVERSIDAD,21.90124038185654,-102.30661057121237,20029
945,Aguascalientes,Aguascalientes,AVENIDA UNIVERSIDAD,405,VILLAS DE LA UNIVERSIDAD,21.901436498540757,-102.30671188052978,20029
946,Aguascalientes,Aguascalientes,AVENIDA UNIVERSIDAD,407,VILLAS DE LA UNIVERSIDAD,21.90186793000172,-102.30693627769591,20029
947,Aguascalientes,Aguascalientes,AVENIDA UNIVERSIDAD,SN,VILLAS DE LA UNIVERSIDAD,21.90212822796156,-102.3070835307226,20029
948,Aguascalientes,Aguascalientes,AVENIDA UNIVERSIDAD,411,VILLAS DE LA UNIVERSIDAD,21.90226048591351,-102.307158350546,20029
949,Aguascalientes,Aguascalientes,AVENIDA CANAL INTERCEPTOR,411,VILLAS DE LA UNIVERSIDAD,21.90257818622086,-102.3072457112649,20029
950,Aguascalientes,Aguascalientes,AVENIDA CANAL INTERCEPTOR NORTE,SN,SAN JOSÉ DEL ARENAL,21.902916512780468,-102.30569386190497,20130
951,Aguascalientes,Aguascalientes,AVENIDA CANAL INTERCEPTOR NORTE,SN,SAN JOSÉ DEL ARENAL,21.903026156650782,-102.30305809313978,20130
952,Aguascalientes,Aguascalientes,CALLE F. ÁNGEL M. VEDELAGO,7038,PRIMO VERDAD,21.909417146347515,-102.3177176552051,20130
953,Aguascalientes,Aguascalientes,AVENIDA AGUASCALIENTES PONIENTE,SN,PRIMO VERDAD,21.909185536112318,-102.31750952984395,20130
954,Aguascalientes,Aguascalientes,AVENIDA AGUASCALIENTES PONIENTE,132A,PRIMO VERDAD,21.90902055091075,-102.31747818306373,20130
955,Aguascalientes,Aguascalientes,AVENIDA AGUASCALIENTES PONIENTE,132,PRIMO VERDAD,21.908948190592483,-102.31746443480638,20130
956,Aguascalientes,Aguascalientes,AVENIDA AGUASCALIENTES PONIENTE,SN,PRIMO VERDAD,21.908839119947285,-102.31744371171783,20130
957,Aguascalientes,Aguascalientes,AVENIDA AGUASCALIENTES PONIENTE,130-5,PRIMO VERDAD,21.908582040046593,-102.3173948674564,20130
958,Aguascalientes,Aguascalientes,AVENIDA AGUASCALIENTES PONIENTE,SN,PRIMO VERDAD,21.908477956153202,-102.3173750919419,20130
959,Aguascalientes,Aguascalientes,AVENIDA AGUASCALIENTES PONIENTE,SN,PRIMO VERDAD,21.908406338603182,-102.3173614849177,20130
960,Aguascalientes,Aguascalientes,AVENIDA AGUASCALIENTES PONIENTE,130A,PRIMO VERDAD,21.90834469454638,-102.31734977282554,20130
961,Aguascalientes,Aguascalientes,AVENIDA AGUASCALIENTES PONIENTE,124,PRIMO VERDAD,21.908283793253016,-102.31733820186557,20130
962,Aguascalientes,Aguascalientes,AVENIDA AGUASCALIENTES PONIENTE,122,PRIMO VERDAD,21.908188197330478,-102.31732003910993,20130
963,Aguascalientes,Aguascalientes,AVENIDA AGUASCALIENTES PONIENTE,118,PRIMO VERDAD,21.908102574901495,-102.31730377129088,20130
964,Aguascalientes,Aguascalientes,AVENIDA AGUASCALIENTES PONIENTE,116,PRIMO VERDAD,21.90802872906664,-102.31728974098043,20130
965,Aguascalientes,Aguascalientes,AVENIDA AGUASCALIENTES PONIENTE,114,PRIMO VERDAD,21.907974300047545,-102.31727939977009,20130
966,Aguascalientes,Aguascalientes,AVENIDA AGUASCALIENTES PONIENTE,112,PRIMO VERDAD,21.90788422104416,-102.31726228527971,20130
967,Aguascalientes,Aguascalientes,CALLE PANTALEÓN VALTIERRA,SN,PRIMO VERDAD,21.90756931921215,-102.31834611536175,20130
968,Aguascalientes,Aguascalientes,CALLE PANTALEÓN VALTIERRA,105,PRIMO VERDAD,21.907840480317976,-102.31834209362388,20130
969,Aguascalientes,Aguascalientes,CALLE PANTALEÓN VALTIERRA,107,PRIMO VERDAD,21.90790617107363,-102.31834111932615,20130
970,Aguascalientes,Aguascalientes,CALLE PANTALEÓN VALTIERRA,109,PRIMO VERDAD,21.907989290370573,-102.31833988653428,20130
971,Aguascalientes,Aguascalientes,PRIVADA SEGUNDA PRIVADA PANTALEÓN VALTIERRA,103,PRIMO VERDAD,21.90800296942691,-102.31805266153577,20130
972,Aguascalientes,Aguascalientes,PRIVADA SEGUNDA PRIVADA PANTALEÓN VALTIERRA,SN,PRIMO VERDAD,21.907906704824814,-102.31805236302291,20130
973,Aguascalientes,Aguascalientes,PRIVADA SEGUNDA PRIVADA PANTALEÓN VALTIERRA,124,PRIMO VERDAD,21.907915531962814,-102.31802323805701,20130
974,Aguascalientes,Aguascalientes,PRIVADA SEGUNDA PRIVADA PANTALEÓN VALTIERRA,122,PRIMO VERDAD,21.90796800939881,-102.31802194035546,20130
975,Aguascalientes,Aguascalientes,PRIVADA SEGUNDA PRIVADA PANTALEÓN VALTIERRA,120,PRIMO VERDAD,21.90802059745295,-102.31802063991748,20130
976,Aguascalientes,Aguascalientes,PRIVADA SEGUNDA PRIVADA PANTALEÓN VALTIERRA,SN,PRIMO VERDAD,21.908086304867723,-102.31801901505241,20130
977,Aguascalientes,Aguascalientes,PRIVADA SEGUNDA PRIVADA PANTALEÓN VALTIERRA,118B,PRIMO VERDAD,21.90815212290124,-102.31801738745034,20130
978,Aguascalientes,Aguascalientes,PRIVADA SEGUNDA PRIVADA PANTALEÓN VALTIERRA,111A,PRIMO VERDAD,21.90826156152067,-102.31801468115933,20130
979,Aguascalientes,Aguascalientes,PRIVADA SEGUNDA PRIVADA PANTALEÓN VALTIERRA,110B,PRIMO VERDAD,21.908252344796384,-102.3180446217265,20130
980,Aguascalientes,Aguascalientes,PRIVADA SEGUNDA PRIVADA PANTALEÓN VALTIERRA,110,PRIMO VERDAD,21.908173517199632,-102.3180467424451,20130
981,Aguascalientes,Aguascalientes,PRIVADA SEGUNDA PRIVADA PANTALEÓN VALTIERRA,108,PRIMO VERDAD,21.90807761675523,-102.3181210317494,20130
982,Aguascalientes,Aguascalientes,PRIVADA SEGUNDA PRIVADA PANTALEÓN VALTIERRA,105,PRIMO VERDAD,21.90808110103699,-102.31821954036951,20130
983,Aguascalientes,Aguascalientes,PRIVADA SEGUNDA PRIVADA PANTALEÓN VALTIERRA,104,PRIMO VERDAD,21.90808377055694,-102.31829501501902,20130
984,Aguascalientes,Aguascalientes,PRIVADA SEGUNDA PRIVADA PANTALEÓN VALTIERRA,111B,PRIMO VERDAD,21.908084770786775,-102.31832329453027,20130
985,Aguascalientes,Aguascalientes,CALLE PANTALEÓN VALTIERRA,119,PRIMO VERDAD,21.908396423687677,-102.31832129550156,20130
986,Aguascalientes,Aguascalientes,PRIVADA TERCERA PRIVADA PANTALEÓN VALTIERRA,103,PRIMO VERDAD,21.908448618060138,-102.31819247242976,20130
987,Aguascalientes,Aguascalientes,PRIVADA TERCERA PRIVADA PANTALEÓN VALTIERRA,105,PRIMO VERDAD,21.908447424736778,-102.31815970165212,20130
988,Aguascalientes,Aguascalientes,PRIVADA TERCERA PRIVADA PANTALEÓN VALTIERRA,107,PRIMO VERDAD,21.908446224375247,-102.31812673778758,20130
989,Aguascalientes,Aguascalientes,PRIVADA TERCERA PRIVADA PANTALEÓN VALTIERRA,109,PRIMO VERDAD,21.90844503103785,-102.31809396701112,20130
990,Aguascalientes,Aguascalientes,PRIVADA TERCERA PRIVADA PANTALEÓN VALTIERRA,111,PRIMO VERDAD,21.908443496736698,-102.31805183315655,20130
991,Aguascalientes,Aguascalientes,PRIVADA TERCERA PRIVADA PANTALEÓN VALTIERRA,109,PRIMO VERDAD,21.908489440373874,-102.3180567920529,20130
992,Aguascalientes,Aguascalientes,PRIVADA TERCERA PRIVADA PANTALEÓN VALTIERRA,123,PRIMO VERDAD,21.90847578516117,-102.31817875295688,20130
993,Aguascalientes,Aguascalientes,CALLE PANTALEÓN VALTIERRA,SN,PRIMO VERDAD,21.908584535707856,-102.31830870553019,20130
994,Aguascalientes,Aguascalientes,PRIVADA CUARTA PRIVADA PANTALEÓN VALTIERRA,127,PRIMO VERDAD,21.90866543440532,-102.31820222600706,20130
995,Aguascalientes,Aguascalientes,PRIVADA CUARTA PRIVADA PANTALEÓN VALTIERRA,SN,PRIMO VERDAD,21.908663982159194,-102.31817338849858,20130
996,Aguascalientes,Aguascalientes,PRIVADA CUARTA PRIVADA PANTALEÓN VALTIERRA,105,PRIMO VERDAD,21.90866259605342,-102.31814586445108,20130
997,Aguascalientes,Aguascalientes,PRIVADA CUARTA PRIVADA PANTALEÓN VALTIERRA,109,PRIMO VERDAD,21.908667894718132,-102.31812075603399,20130
998,Aguascalientes,Aguascalientes,PRIVADA CUARTA PRIVADA PANTALEÓN VALTIERRA,112,PRIMO VERDAD,21.908691659610167,-102.31813084521033,20130
999,Aguascalientes,Aguascalientes,PRIVADA CUARTA PRIVADA PANTALEÓN VALTIERRA,110A,PRIMO VERDAD,21.908692981760804,-102.31814682584636,20130
1000,Aguascalientes,Aguascalientes,PRIVADA CUARTA PRIVADA PANTALEÓN VALTIERRA,110B,PRIMO VERDAD,21.908694437885075,-102.31816442582509,20130
